"name","address","start","end","gcode","lat","long","status","contains"
"Home Business","969 HILGARD AVENUE,LOS ANGELES,CA,90024","03/04/1997","08/31/2018","969, Hilgard Avenue, Westwood Village, Westwood, Los Angeles, Los Angeles County, California, 90024, United States",34.0624301864616,-118.441578387567,"closed",0
"Home Business","972 HILGARD AVENUE,LOS ANGELES,CA,90024","09/01/2012","07/01/2018","972, Hilgard Avenue, Westwood Village, Westwood, Los Angeles, Los Angeles County, California, 90024, United States",34.0623108944174,-118.441397586243,"closed",0
"WILD FLOWER EVENTS, LLC","476 COMSTOCK AVENUE,LOS ANGELES,CA,90024","03/31/2008","12/31/2018","476, Comstock Avenue, Westwood, Los Angeles, Los Angeles County, California, 90024, United States",34.0741225948902,-118.432238030346,"closed",1
"Home Business","1031 BROXTON AVENUE,LOS ANGELES,CA,90024","01/01/2018","07/01/2018","1031, Broxton Avenue, Westwood Village, Westwood, Los Angeles, Los Angeles County, California, 90024, United States",34.06186905,-118.446977405269,"closed",0
"Home Business","1536 MALCOLM AVENUE,LOS ANGELES,CA,90024","07/28/2017","09/01/2018","1536, Malcolm Avenue, Westwood Village, Westwood, Los Angeles, Los Angeles County, California, 90024, United States",34.0547648163265,-118.438488163265,"closed",0
"MID MARK CONSULTING INC","10717 WILSHIRE BLVD,LOS ANGELES,CA,90024","04/06/2016","12/31/2018","10717, Wilshire Boulevard, Westwood, Los Angeles, Los Angeles County, California, 90024, United States",34.060764451355,-118.436555642333,"closed",1
"ISABELLA BEVERLY HILLS LLC","1300 MIDVALE AVENUE,LOS ANGELES,CA,90024","06/20/2018","09/28/2018","1300, Midvale Avenue, Westwood Village, Westwood, Los Angeles, Los Angeles County, California, 90024, United States",34.056461,-118.444345,"closed",1
"Home Business","10911 WELLWORTH AVENUE,LOS ANGELES,CA,90024","01/01/2016","10/01/2018","10911, Wellworth Avenue, Westwood Village, Westwood, Los Angeles, Los Angeles County, California, 90024, United States",34.05695875,-118.443228416667,"closed",0
"RHODIUM MANAGEMENT INC","10960 WILSHIRE BLVD,LOS ANGELES,CA,90024","09/20/2017","08/30/2018","Equinox Building, 10960, Wilshire Boulevard, Westwood Village, Westwood, Los Angeles, Los Angeles County, California, 90024, United States",34.05787365,-118.445925726254,"closed",1
"JUMPING FOOL COMPANY INC","10866 WILSHIRE BLVD,LOS ANGELES,CA,90024","01/01/2009","12/31/2018","10866, Wilshire Boulevard, Westwood Village, Westwood, Los Angeles, Los Angeles County, California, 90024, United States",34.0591843846154,-118.442019384615,"closed",1
"AJA INC","970 GAYLEY AVENUE,LOS ANGELES,CA,90024","01/02/2008","08/28/2018","970, Gayley Avenue, Westwood Village, Westwood, Los Angeles, Los Angeles County, California, 90024, United States",34.0622965714286,-118.448007428571,"closed",1
"GLOBAL KORP INC","10866 WILSHIRE BLVD,LOS ANGELES,CA,90024","10/15/2018","12/31/2018","10866, Wilshire Boulevard, Westwood Village, Westwood, Los Angeles, Los Angeles County, California, 90024, United States",34.0591843846154,-118.442019384615,"closed",1
"Home Business","1437 WESTWOOD BLVD,LOS ANGELES,CA,90024","03/02/1993","09/14/2018","1437, Westwood Boulevard, Westwood Village, Westwood, Los Angeles, Los Angeles County, California, 90024, United States",34.0547956938776,-118.441408693878,"closed",0
"SPEEDEX LOGISTICS INC","1437 WESTWOOD BLVD,LOS ANGELES,CA,90024","06/01/2001","09/14/2018","1437, Westwood Boulevard, Westwood Village, Westwood, Los Angeles, Los Angeles County, California, 90024, United States",34.0547956938776,-118.441408693878,"closed",1
"Home Business","10448 KINNARD AVENUE,LOS ANGELES,CA,90024","01/01/2004","12/31/2018","10448, Kinnard Avenue, Westwood, Los Angeles, Los Angeles County, California, 90024, United States",34.0589213265306,-118.427088857143,"closed",0
"LUXURY VALET, INC","10667 EASTBORNE AVENUE,LOS ANGELES,CA,90024","05/08/2015","01/01/2018","10667, Eastborne Avenue, Westwood, Los Angeles, Los Angeles County, California, 90024, United States",34.0538010612245,-118.431530040816,"closed",1
"ONE BEACON ENTERTAINMENT","1100 GLENDON AVENUE,LOS ANGELES,CA,90024","01/24/2010","07/27/2018","Westwood Center, 1100, Glendon Avenue, Westwood Village, Westwood, Los Angeles, Los Angeles County, California, 90024, United States",34.0605418,-118.443495411629,"closed",1
"NEWCAL INVESTMENT, INC.","1563 WESTWOOD BLVD,LOS ANGELES,CA,90024","09/13/2018","12/17/2018","1563, Westwood Boulevard, Westwood Village, Westwood, Los Angeles, Los Angeles County, California, 90024, United States",34.0530216764706,-118.4398815,"closed",1
"Home Business","1650 VETERAN AVENUE,LOS ANGELES,CA,90024","05/01/1991","02/22/2018","1650, Veteran Avenue, Westwood, Los Angeles, Los Angeles County, California, 90024, United States",34.0506419220232,-118.441489953549,"closed",0
"ASPIRE RIGHT INC","10880 WILSHIRE BLVD,LOS ANGELES,CA,90024","07/05/2005","06/30/2018","U.S. Coast Guard - Motion Picture and Television Office, 10880, Wilshire Boulevard, Westwood Village, Westwood, Los Angeles, Los Angeles County, California, 90024, United States",34.058617,-118.4432767,"closed",1
"Home Business","1377 S BEVERLY GLEN BLVD,LOS ANGELES,CA,90024","02/10/2007","12/31/2018","1377, South Beverly Glen Boulevard, Westwood, Los Angeles, Los Angeles County, California, 90024, United States",34.062679162774,-118.426425118461,"closed",0
"STACY W. BOWER REGISTERED NURSING INC","1516 WESTWOOD BLVD,LOS ANGELES,CA,90024","08/13/2007","08/31/2018","1516, Westwood Boulevard, Westwood Village, Westwood, Los Angeles, Los Angeles County, California, 90024, United States",34.0538699183673,-118.44036944898,"closed",1
"AQUARIUS CONTENT, LLC","1033 GAYLEY AVENUE,LOS ANGELES,CA,90024","01/30/2018","12/31/2018","1033, Gayley Avenue, Westwood Village, Westwood, Los Angeles, Los Angeles County, California, 90024, United States",34.061224,-118.447742141384,"closed",1
"RTTV AMERICA INC","10940 WILSHIRE BLVD,LOS ANGELES,CA,90024","03/09/2010","12/31/2018","The Tower, 10940, Wilshire Boulevard, Westwood Village, Westwood, Los Angeles, Los Angeles County, California, 90024, United States",34.05804765,-118.445077273047,"closed",1
"A & S INVESTMENT CORPORATION","10671 HOLMAN AVENUE,LOS ANGELES,CA,90024","06/01/1999","12/30/2018","10671, Holman Avenue, Westwood, Los Angeles, Los Angeles County, California, 90024, United States",34.0550011624863,-118.432855231715,"closed",1
"Home Business","1610 S BEVERLY GLEN BLVD,LOS ANGELES,CA,90024","02/01/1973","12/31/2018","1610, South Beverly Glen Boulevard, Westwood, Los Angeles, Los Angeles County, California, 90024, United States",34.0594735293274,-118.424889766036,"closed",0
"Home Business","1276 DEVON AVENUE,LOS ANGELES,CA,90024","08/27/2014","12/31/2018","1276, Devon Avenue, Westwood, Los Angeles, Los Angeles County, California, 90024, United States",34.0651338326702,-118.42620602213,"closed",0
"Home Business","1610 S BEVERLY GLEN BLVD,LOS ANGELES,CA,90024","12/01/1974","12/31/2018","1610, South Beverly Glen Boulevard, Westwood, Los Angeles, Los Angeles County, California, 90024, United States",34.0594735293274,-118.424889766036,"closed",0
"BLISS MFG INC","10917 LINDBROOK DRIVE,LOS ANGELES,CA,90024","03/01/2014","11/20/2018","Nature's Way Caf√©, 10917, Lindbrook Drive, Westwood Village, Westwood, Los Angeles, Los Angeles County, California, 90024, United States",34.0596412,-118.445166,"closed",1
"Home Business","10561 KINNARD AVENUE,LOS ANGELES,CA,90024","01/01/2000","12/31/2018","10561, Kinnard Avenue, Westwood, Los Angeles, Los Angeles County, California, 90024, United States",34.0571615416667,-118.42996025,"closed",0
"PRIVE MEDISPA INC","1762 WESTWOOD BLVD,LOS ANGELES,CA,90024","11/03/2008","12/31/2018","1762, Westwood Boulevard, Westwood, Los Angeles, Los Angeles County, California, 90024, United States",34.0506534285714,-118.437595959184,"closed",1
"ZOOM LAUNDRY SYSTEMS LLC","10866 WILSHIRE BLVD,LOS ANGELES,CA,90024","04/22/2010","05/08/2018","10866, Wilshire Boulevard, Westwood Village, Westwood, Los Angeles, Los Angeles County, California, 90024, United States",34.0591843846154,-118.442019384615,"closed",1
"NF CALIFORNIA LLC","1114 GAYLEY AVENUE,LOS ANGELES,CA,90024","12/01/1999","02/23/2018","Native Foods, 1114, Gayley Avenue, Westwood Village, Westwood, Los Angeles, Los Angeles County, California, 90024, United States",34.0599185,-118.446004,"closed",1
"AERO CARGO INC","10560 WILSHIRE BLVD,LOS ANGELES,CA,90024","04/01/1994","09/10/2018","10560, Wilshire Boulevard, Westwood, Los Angeles, Los Angeles County, California, 90024, United States",34.062387,-118.432843,"closed",1
"Home Business","10676 WILKINS AVENUE,LOS ANGELES,CA,90024","01/01/2009","01/01/2018","10676, Wilkins Avenue, Westwood, Los Angeles, Los Angeles County, California, 90024, United States",34.0563785926136,-118.433912594962,"closed",0
"THE ASHWOOD SEVEN LLC","10866 WILSHIRE BLVD,LOS ANGELES,CA,90024","01/01/2013","09/24/2018","10866, Wilshire Boulevard, Westwood Village, Westwood, Los Angeles, Los Angeles County, California, 90024, United States",34.0591843846154,-118.442019384615,"closed",1
"ZOE-S INC","780 MALCOLM AVENUE,LOS ANGELES,CA,90024","10/07/2016","12/31/2018","780, Malcolm Avenue, Westwood Village, Westwood, Los Angeles, Los Angeles County, California, 90024, United States",34.0664383841521,-118.438153359752,"closed",1
"Home Business","1055 BROXTON AVENUE,LOS ANGELES,CA,90024","09/01/2016","12/31/2018","Ami Sushi, 1055, Broxton Avenue, Westwood Village, Westwood, Los Angeles, Los Angeles County, California, 90024, United States",34.0614911,-118.446441,"closed",0
"MARIA ELIZABETH COYOY","850 S BEVERLY GLEN BLVD,LOS ANGELES,CA,90024","03/15/2013","06/01/2018","850, South Beverly Glen Boulevard, Westwood, Los Angeles, Los Angeles County, California, 90024, United States",34.0683241919192,-118.429652262626,"closed",1
"AUTHENTIK INC","10866 WILSHIRE BLVD,LOS ANGELES,CA,90024","01/01/2017","12/31/2018","10866, Wilshire Boulevard, Westwood Village, Westwood, Los Angeles, Los Angeles County, California, 90024, United States",34.0591843846154,-118.442019384615,"closed",1
"Home Business","10530 WILSHIRE BLVD,LOS ANGELES,CA,90024","03/01/2015","12/31/2018","10530, Wilshire Boulevard, Westwood, Los Angeles, Los Angeles County, California, 90024, United States",34.0633413103448,-118.432473448276,"closed",0
"SIMPLICITE GLOBAL LLC","10748 ASHTON AVENUE,LOS ANGELES,CA,90024","06/01/2017","10/31/2018","10748, Ashton Avenue, Westwood Village, Westwood, Los Angeles, Los Angeles County, California, 90024, United States",34.059254,-118.437388,"closed",1
"PACIFIC CREDIT GROUP, LLC","10866 WILSHIRE BLVD,LOS ANGELES,CA,90024","09/23/2014","06/15/2018","10866, Wilshire Boulevard, Westwood Village, Westwood, Los Angeles, Los Angeles County, California, 90024, United States",34.0591843846154,-118.442019384615,"closed",1
"EVERGREEN KKC ENTERPRISE INC","10911 LINDBROOK DRIVE,LOS ANGELES,CA,90024","06/02/2009","12/31/2018","Yogurtland, 10911, Lindbrook Drive, Westwood Village, Westwood, Los Angeles, Los Angeles County, California, 90024, United States",34.0596955,-118.4451035,"closed",1
"KOALA TEA INC","359 VETERAN AVENUE,LOS ANGELES,CA,90024","09/04/2013","12/20/2018","359, Veteran Avenue, Westwood, Los Angeles, Los Angeles County, California, 90024, United States",34.071096,-118.455165183673,"closed",1
"25TH AVENUE ASSOCIATES LLC","10960 WILSHIRE BLVD,LOS ANGELES,CA,90024","01/01/2007","02/01/2018","Equinox Building, 10960, Wilshire Boulevard, Westwood Village, Westwood, Los Angeles, Los Angeles County, California, 90024, United States",34.05787365,-118.445925726254,"closed",1
"Home Business","10960 WILSHIRE BLVD,LOS ANGELES,CA,90024","05/31/1984","05/01/2018","Equinox Building, 10960, Wilshire Boulevard, Westwood Village, Westwood, Los Angeles, Los Angeles County, California, 90024, United States",34.05787365,-118.445925726254,"closed",0
"BLACK CIRCLE INC","10866 WILSHIRE BLVD,LOS ANGELES,CA,90024","05/11/2015","11/26/2018","10866, Wilshire Boulevard, Westwood Village, Westwood, Los Angeles, Los Angeles County, California, 90024, United States",34.0591843846154,-118.442019384615,"closed",1
"Home Business","1526 MALCOLM AVENUE,LOS ANGELES,CA,90024","01/01/2006","12/31/2018","1526, Malcolm Avenue, Westwood Village, Westwood, Los Angeles, Los Angeles County, California, 90024, United States",34.0548523673469,-118.438563673469,"closed",0
"Home Business","10960 WILSHIRE BLVD,LOS ANGELES,CA,90024","09/18/2017","08/30/2018","Equinox Building, 10960, Wilshire Boulevard, Westwood Village, Westwood, Los Angeles, Los Angeles County, California, 90024, United States",34.05787365,-118.445925726254,"closed",0
"Home Business","760 WESTWOOD PLAZA,LOS ANGELES,CA,90024","07/01/2016","12/31/2018","Westwood Plaza, Westwood Village, Westwood, Los Angeles, Los Angeles County, California, 90024, United States",34.0637938,-118.4452904,"closed",0
"RHODIUM PUBLISHING CORPORATION","10960 WILSHIRE BLVD,LOS ANGELES,CA,90024","09/18/2017","08/30/2018","Equinox Building, 10960, Wilshire Boulevard, Westwood Village, Westwood, Los Angeles, Los Angeles County, California, 90024, United States",34.05787365,-118.445925726254,"closed",1
"MANNING LLC","1665 MANNING AVENUE,LOS ANGELES,CA,90024","04/24/2000","02/07/2018","1665, Manning Avenue, Westwood, Los Angeles, Los Angeles County, California, 90024, United States",34.0538774285714,-118.432811714286,"closed",1
"AMPCO SYSTEM PARKING INC","10877 WILSHIRE BLVD,LOS ANGELES,CA,90024","04/16/2002","11/18/2018","10877, Wilshire Boulevard, Westwood Village, Westwood, Los Angeles, Los Angeles County, California, 90024, United States",34.05927025,-118.4423481,"closed",1
"SHIRAH VOLLMER MD APC","1402 GLENDON AVENUE,LOS ANGELES,CA,90024","07/01/1991","09/09/2018","1402, Glendon Avenue, Westwood, Los Angeles, Los Angeles County, California, 90024, United States",34.0564495517241,-118.440444172414,"closed",1
"VCJS LLC","1073 GLENDON AVENUE,LOS ANGELES,CA,90024","07/01/2008","07/31/2018","1073, Glendon Avenue, Westwood Village, Westwood, Los Angeles, Los Angeles County, California, 90024, United States",34.0613193265306,-118.44442077551,"closed",1
"LOUIS VUITTON USA INC.","141 S CAROLWOOD DRIVE,LOS ANGELES,CA,90024","10/22/2018","10/28/2018","141, South Carolwood Drive, Westwood, Los Angeles, Los Angeles County, California, 90024, United States",34.0805777721155,-118.42634779929,"closed",1
"Home Business","1712  S BEVERLY GLEN BLVD,LOS ANGELES,CA,90024","05/03/2013","11/17/2018","1712, South Beverly Glen Boulevard, Westwood, Los Angeles, Los Angeles County, California, 90024, United States",34.058228877551,-118.424520530612,"closed",0
"KAPLAN INC","1133 WESTWOOD BLVD,LOS ANGELES,CA,90024","06/01/1994","12/31/2018","Kaplan, 1133, Westwood Boulevard, Westwood Village, Westwood, Los Angeles, Los Angeles County, California, 90024, United States",34.0598518,-118.4452115,"closed",1
"WEST COAST GROUND SERVICES INC","10560 WILSHIRE BLVD,LOS ANGELES,CA,90024","01/28/1994","08/23/2018","10560, Wilshire Boulevard, Westwood, Los Angeles, Los Angeles County, California, 90024, United States",34.062387,-118.432843,"closed",1
"BIRDIE LICENSING LLC","10960 WILSHIRE BLVD,LOS ANGELES,CA,90024","06/08/2007","10/15/2018","Equinox Building, 10960, Wilshire Boulevard, Westwood Village, Westwood, Los Angeles, Los Angeles County, California, 90024, United States",34.05787365,-118.445925726254,"closed",1
"Home Business","1051 GLENDON AVENUE,LOS ANGELES,CA,90024","03/10/2014","06/30/2018","1051, Glendon Avenue, Westwood Village, Westwood, Los Angeles, Los Angeles County, California, 90024, United States",34.0616614489796,-118.444336816327,"closed",0
"PRETTY PARTY LLC","10960 WILSHIRE BLVD,LOS ANGELES,CA,90024","04/10/2017","10/15/2018","Equinox Building, 10960, Wilshire Boulevard, Westwood Village, Westwood, Los Angeles, Los Angeles County, California, 90024, United States",34.05787365,-118.445925726254,"closed",1
"Home Business","1255 DEVON AVENUE,LOS ANGELES,CA,90024","02/01/2017","12/30/2018","1255, Devon Avenue, Westwood, Los Angeles, Los Angeles County, California, 90024, United States",34.0654959970509,-118.426457141566,"closed",0
"EQ EXCHANGE LLC","10701 WILSHIRE BLVD,LOS ANGELES,CA,90024","07/01/2016","12/31/2018","10701, Wilshire Boulevard, Westwood, Los Angeles, Los Angeles County, California, 90024, United States",34.060904,-118.435904,"closed",1
"NOSDUH LLC","10960 WILSHIRE BLVD,LOS ANGELES,CA,90024","10/08/2015","10/15/2018","Equinox Building, 10960, Wilshire Boulevard, Westwood Village, Westwood, Los Angeles, Los Angeles County, California, 90024, United States",34.05787365,-118.445925726254,"closed",1
"BIRDIE PRODUCTIONS INC","10960 WILSHIRE BLVD,LOS ANGELES,CA,90024","07/02/1999","10/15/2018","Equinox Building, 10960, Wilshire Boulevard, Westwood Village, Westwood, Los Angeles, Los Angeles County, California, 90024, United States",34.05787365,-118.445925726254,"closed",1
"Home Business","1386 WESTWOOD BLVD,LOS ANGELES,CA,90024","10/18/2018","12/31/2018","1386, Westwood Boulevard, Westwood Village, Westwood, Los Angeles, Los Angeles County, California, 90024, United States",34.0556325,-118.44181675,"closed",0
"Home Business","10445 WILSHIRE BLVD,LOS ANGELES,CA,90024","08/01/2002","12/10/2018","Wilshire Boulevard, Westwood, Los Angeles, Los Angeles County, California, 90024, United States",34.0611221,-118.4346192,"closed",0
"Home Business","10650 KINNARD AVENUE,LOS ANGELES,CA,90024","08/01/2011","05/31/2018","10650, Kinnard Avenue, Westwood, Los Angeles, Los Angeles County, California, 90024, United States",34.0557077058824,-118.432804176471,"closed",0
"Home Business","10830 LINDBROOK DRIVE,LOS ANGELES,CA,90024","01/01/2011","12/13/2018","10830, Lindbrook Drive, Westwood Village, Westwood, Los Angeles, Los Angeles County, California, 90024, United States",34.0606314489796,-118.440782612245,"closed",0
"LOS ANGELES INFO INC","10845 LINDBROOK DRIVE,LOS ANGELES,CA,90024","02/02/2005","12/01/2018","Red Pelican Music, 10845, Lindbrook Drive, Westwood Village, Westwood, Los Angeles, Los Angeles County, California, 90024, United States",34.060417,-118.442651,"closed",1
"Home Business","1441 VETERAN AVENUE,LOS ANGELES,CA,90024","01/01/2011","04/18/2018","1441, Veteran Avenue, Westwood, Los Angeles, Los Angeles County, California, 90024, United States",34.0530450612245,-118.44380622449,"closed",0
"Home Business","1061 GAYLEY AVENUE,LOS ANGELES,CA,90024","05/01/1984","12/31/2018","1061, Gayley Avenue, Westwood Village, Westwood, Los Angeles, Los Angeles County, California, 90024, United States",34.0608713673469,-118.447159163265,"closed",0
"Home Business","10850 WILSHIRE BLVD,LOS ANGELES,CA,90024","07/01/2016","01/01/2018","English Language Center - ELC Los Angeles, 10850, Wilshire Boulevard, Westwood Village, Westwood, Los Angeles, Los Angeles County, California, 90024, United States",34.05913165,-118.44120737686,"closed",0
"Home Business","10990 ROCHESTER AVENUE,LOS ANGELES,CA,90024","01/01/2005","11/01/2018","10990, Rochester Avenue, Westwood Village, Westwood, Los Angeles, Los Angeles County, California, 90024, United States",34.0553015,-118.445273,"closed",0
"Home Business","1402 GLENDON AVENUE,LOS ANGELES,CA,90024","08/11/2005","12/31/2018","1402, Glendon Avenue, Westwood, Los Angeles, Los Angeles County, California, 90024, United States",34.0564495517241,-118.440444172414,"closed",0
"Home Business","10866 WILSHIRE BLVD,LOS ANGELES,CA,90024","03/05/2008","12/31/2018","10866, Wilshire Boulevard, Westwood Village, Westwood, Los Angeles, Los Angeles County, California, 90024, United States",34.0591843846154,-118.442019384615,"closed",0
"AZAR GARDENS INC","1355 WESTWOOD BLVD,LOS ANGELES,CA,90024","01/01/2012","12/15/2018","1355, Westwood Boulevard, Westwood Village, Westwood, Los Angeles, Los Angeles County, California, 90024, United States",34.0559875,-118.44225175,"closed",1
"PRIMARY WAVE MUSIC PUBLISHING LLC","10850 WILSHIRE BLVD,LOS ANGELES,CA,90024","05/01/2008","12/31/2018","English Language Center - ELC Los Angeles, 10850, Wilshire Boulevard, Westwood Village, Westwood, Los Angeles, Los Angeles County, California, 90024, United States",34.05913165,-118.44120737686,"closed",1
"ABM INDUSTRY GROUPS, LLC","10850 W LINDBROOK DRIVE,LOS ANGELES,CA,90024","03/10/2017","06/29/2018","10850, Lindbrook Drive, Westwood Village, Westwood, Los Angeles, Los Angeles County, California, 90024, United States",34.0605330816326,-118.441153020408,"closed",1
"Home Business","10350 WILSHIRE BLVD,LOS ANGELES,CA,90024","10/03/2013","12/31/2018","Wilshire Boulevard, Westwood, Los Angeles, Los Angeles County, California, 90024, United States",34.0611221,-118.4346192,"closed",0
"WINTHORPE VALENTINE LLC","1434 WESTWOOD BLVD,LOS ANGELES,CA,90024","10/14/2015","12/31/2018","1434, Westwood Boulevard, Westwood Village, Westwood, Los Angeles, Los Angeles County, California, 90024, United States",34.054911877551,-118.441265877551,"closed",1
"CONTINUUM ENTERTAINMENT LLC","1376 S BEVERLY GLEN BLVD,LOS ANGELES,CA,90024","01/12/2010","01/01/2018","1376, South Beverly Glen Boulevard, Westwood, Los Angeles, Los Angeles County, California, 90024, United States",34.0627752363922,-118.4262431673,"closed",1
"COURTLAND PARTNERS LTD","10866 WILSHIRE BLVD,LOS ANGELES,CA,90024","08/15/2007","04/01/2018","10866, Wilshire Boulevard, Westwood Village, Westwood, Los Angeles, Los Angeles County, California, 90024, United States",34.0591843846154,-118.442019384615,"closed",1
"Home Business","943 WESTWOOD BLVD,LOS ANGELES,CA,90024","01/01/2018","12/31/2018","943, Westwood Boulevard, Westwood Village, Westwood, Los Angeles, Los Angeles County, California, 90024, United States",34.0629449365194,-118.445187237765,"closed",0
"PREMIER NUTRITION ASSOCIATES CORP","1377 S BEVERLY GLEN BLVD,LOS ANGELES,CA,90024","03/31/2017","12/31/2018","1377, South Beverly Glen Boulevard, Westwood, Los Angeles, Los Angeles County, California, 90024, United States",34.062679162774,-118.426425118461,"closed",1
"SHADZ TOURING, INC","10960 WILSHIRE BLVD,LOS ANGELES,CA,90024","12/01/2008","12/31/2018","Equinox Building, 10960, Wilshire Boulevard, Westwood Village, Westwood, Los Angeles, Los Angeles County, California, 90024, United States",34.05787365,-118.445925726254,"closed",1
"Home Business","10824 WELLWORTH AVENUE,LOS ANGELES,CA,90024","01/01/2018","12/31/2018","10824, Wellworth Avenue, Westwood Village, Westwood, Los Angeles, Los Angeles County, California, 90024, United States",34.0576125510094,-118.439895926256,"closed",0
"Home Business","1314 WESTWOOD BLVD,LOS ANGELES,CA,90024","06/26/1986","12/31/2018","1314, Westwood Boulevard, Westwood Village, Westwood, Los Angeles, Los Angeles County, California, 90024, United States",34.056753625,-118.442492166667,"closed",0
"Home Business","1314 WESTWOOD BLVD,LOS ANGELES,CA,90024","08/27/1994","02/28/2018","1314, Westwood Boulevard, Westwood Village, Westwood, Los Angeles, Los Angeles County, California, 90024, United States",34.056753625,-118.442492166667,"closed",0
"NICHE BIOMEDICAL LLC","10724 LINDBROOK DRIVE,LOS ANGELES,CA,90024","09/16/2016","05/03/2018","10724, Lindbrook Drive, Westwood Village, Westwood, Los Angeles, Los Angeles County, California, 90024, United States",34.061579020797,-118.4370833353,"closed",1
"Home Business","908 MALCOLM AVENUE,LOS ANGELES,CA,90024","01/01/2006","08/01/2018","908, Malcolm Avenue, Westwood Village, Westwood, Los Angeles, Los Angeles County, California, 90024, United States",34.0636079183673,-118.439847693878,"closed",0
"Home Business","10960 WILSHIRE BLVD,LOS ANGELES,CA,90024","03/04/2003","12/31/2018","Equinox Building, 10960, Wilshire Boulevard, Westwood Village, Westwood, Los Angeles, Los Angeles County, California, 90024, United States",34.05787365,-118.445925726254,"closed",0
"Home Business","436 KELTON AVENUE,LOS ANGELES,CA,90024","03/01/1975","11/02/2018","436, Kelton Avenue, Westwood, Los Angeles, Los Angeles County, California, 90024, United States",34.0695873061225,-118.453697244898,"closed",0
"Home Business","10850 WILSHIRE BLVD,LOS ANGELES,CA,90024","01/01/2011","12/31/2018","English Language Center - ELC Los Angeles, 10850, Wilshire Boulevard, Westwood Village, Westwood, Los Angeles, Los Angeles County, California, 90024, United States",34.05913165,-118.44120737686,"closed",0
"ADVERTISING & ACCESSORIES INC","507 GLENROCK AVENUE,LOS ANGELES,CA,90024","12/01/2013","12/31/2018","The Nest, 507, Glenrock Avenue, Westwood, Los Angeles, Los Angeles County, California, 90095, United States",34.06785675,-118.451766555532,"closed",1
"WEB ROCKY LLC","1642 WESTWOOD BLVD,LOS ANGELES,CA,90024","02/28/2013","12/31/2018","1642, Westwood Boulevard, Westwood, Los Angeles, Los Angeles County, California, 90024, United States",34.052472,-118.439163714286,"closed",1
"KATHLEEN J NUCKLES DDS","10921 WILSHIRE BLVD,LOS ANGELES,CA,90024","05/10/1984","06/30/2018","Westwood Medical Plaza, 10921, Wilshire Boulevard, Westwood Village, Westwood, Los Angeles, Los Angeles County, California, 90024, United States",34.05886315,-118.444825522401,"closed",1
"Home Business","1579 MANNING AVENUE,LOS ANGELES,CA,90024","04/01/2015","08/16/2018","1579, Manning Avenue, Westwood, Los Angeles, Los Angeles County, California, 90024, United States",34.055568,-118.43427,"closed",0
"Home Business","1260 VETERAN AVENUE,LOS ANGELES,CA,90024","09/22/2014","09/01/2018","1260, Veteran Avenue, Westwood Village, Westwood, Los Angeles, Los Angeles County, California, 90024, United States",34.0566576666667,-118.446677125,"closed",0
"MICROSOFT CORP","1100 GLENDON AVENUE,LOS ANGELES,CA,90024","12/01/2009","02/24/2018","Westwood Center, 1100, Glendon Avenue, Westwood Village, Westwood, Los Angeles, Los Angeles County, California, 90024, United States",34.0605418,-118.443495411629,"closed",1
"JOHN PATRICK COLLINS","10650 HOLMAN AVENUE,LOS ANGELES,CA,90024","01/01/2015","12/31/2018","10650, Holman Avenue, Westwood, Los Angeles, Los Angeles County, California, 90024, United States",34.0546406093498,-118.432220429884,"closed",1
"Home Business","1422 MIDVALE AVENUE,LOS ANGELES,CA,90024","01/24/1989","06/29/2018","1422, 1424,1426, 1426 1/2, 1428, Midvale Avenue, West Los Angeles, Los Angeles, Los Angeles County, California, 90024-3990, United States",34.0544149,-118.441860482871,"closed",0
"Home Business","1441 VETERAN AVENUE,LOS ANGELES,CA,90024","11/01/2017","11/26/2018","1441, Veteran Avenue, Westwood, Los Angeles, Los Angeles County, California, 90024, United States",34.0530450612245,-118.44380622449,"closed",0
"LIYING ACUPUNTURE CENTER","1353 WESTWOOD BLVD,LOS ANGELES,CA,90024","03/13/1996","10/02/2018","1353, Westwood Boulevard, Westwood Village, Westwood, Los Angeles, Los Angeles County, California, 90024, United States",34.05601425,-118.442267875,"closed",1
"CAMP MOUNTAINFIT","1350 KELTON AVENUE,LOS ANGELES,CA,90024","03/15/2017","09/01/2018","1350, Kelton Avenue, Westwood, Los Angeles, Los Angeles County, California, 90024, United States",34.0549416611248,-118.443901973372,"closed",1
"Home Business","10636 WILSHIRE BLVD,LOS ANGELES,CA,90024","09/01/2015","06/30/2018","10636, Wilshire Boulevard, Westwood, Los Angeles, Los Angeles County, California, 90024, United States",34.0610741010143,-118.434394097455,"closed",0
"Home Business","1756 MALCOLM AVENUE,LOS ANGELES,CA,90024","09/04/2016","02/20/2018","1756, Malcolm Avenue, Westwood, Los Angeles, Los Angeles County, California, 90024, United States",34.0512588489953,-118.43543420808,"closed",0
"Home Business","540 GLENROCK AVENUE,LOS ANGELES,CA,90024","09/29/2015","12/31/2018","540, Glenrock Avenue, Westwood, Los Angeles, Los Angeles County, California, 90024, United States",34.0673862857143,-118.451126428571,"closed",0
"Home Business","1138 WESTWOOD BLVD,LOS ANGELES,CA,90024","03/01/2012","02/16/2018","1138, Westwood Boulevard, Westwood Village, Westwood, Los Angeles, Los Angeles County, California, 90024, United States",34.0602192579896,-118.445392219398,"closed",0
"NB ENDODONTICS","1375 KELTON AVENUE,LOS ANGELES,CA,90024","07/14/2015","12/31/2018","1375, Kelton Avenue, West Los Angeles, Los Angeles, Los Angeles County, California, 90024-3990, United States",34.054821,-118.44441716754,"closed",1
"Home Business","907 WESTWOOD BLVD,LOS ANGELES,CA,90024","12/01/2017","09/25/2018","907, Westwood Boulevard, Westwood Village, Westwood, Los Angeles, Los Angeles County, California, 90024, United States",34.0631104949684,-118.445181502484,"closed",0
"Home Business","1666 THAYER AVENUE,LOS ANGELES,CA,90024","01/15/2016","01/01/2018","1666, Thayer Avenue, Westwood, Los Angeles, Los Angeles County, California, 90024, United States",34.0569953333333,-118.427724333333,"closed",0
"Home Business","1390 VETERAN AVENUE,LOS ANGELES,CA,90024","12/01/2013","12/31/2018","1390, Veteran Avenue, West Los Angeles, Los Angeles, Los Angeles County, California, 90024-3990, United States",34.05423745,-118.444306249454,"closed",0
"RMARK ENTERPRISES INC","10475 EASTBORNE AVENUE,LOS ANGELES,CA,90024","01/01/2018","01/01/2018","10475, Eastborne Avenue, Westwood, Los Angeles, Los Angeles County, California, 90024, United States",34.0569969310345,-118.426880896552,"closed",1
"Home Business","933 HILGARD AVENUE,LOS ANGELES,CA,90024","09/20/2014","12/31/2018","933, Hilgard Avenue, Westwood Village, Westwood, Los Angeles, Los Angeles County, California, 90024, United States",34.0632360412834,-118.441443765315,"closed",0
"THE BENTLEY FORBES GROUP LLC","10877 WILSHIRE BLVD,LOS ANGELES,CA,90024","01/01/1994","12/31/2018","10877, Wilshire Boulevard, Westwood Village, Westwood, Los Angeles, Los Angeles County, California, 90024, United States",34.05927025,-118.4423481,"closed",1
"Home Business","1700 WESTHOLME AVENUE,LOS ANGELES,CA,90024","06/01/2018","10/01/2018","1700, Westholme Avenue, Westwood, Los Angeles, Los Angeles County, California, 90024, United States",34.054592,-118.429989,"closed",0
"Home Business","10450 WILSHIRE BLVD,LOS ANGELES,CA,90024","01/15/2003","04/04/2018","Wilshire Boulevard, Westwood, Los Angeles, Los Angeles County, California, 90024, United States",34.0611221,-118.4346192,"closed",0
"Home Business","10350 WILSHIRE BLVD,LOS ANGELES,CA,90024","07/01/2002","01/01/2018","Wilshire Boulevard, Westwood, Los Angeles, Los Angeles County, California, 90024, United States",34.0611221,-118.4346192,"closed",0
"ZUMA HOLLYWOOD LLC","10777 ASHTON AVENUE,LOS ANGELES,CA,90024","12/04/2017","12/31/2018","10777, Ashton Avenue, Westwood Village, Westwood, Los Angeles, Los Angeles County, California, 90024, United States",34.059123125,-118.438533666667,"closed",1
"PROGRAM WEST CONSULTING","1277 S BEVERLY GLEN BLVD,LOS ANGELES,CA,90024","02/13/2018","12/31/2018","1277, South Beverly Glen Boulevard, Westwood, Los Angeles, Los Angeles County, California, 90024, United States",34.0645210320377,-118.427610355682,"closed",1
"TIMEWARE SOLUTIONS, INC","10933 WELLWORTH AVENUE,LOS ANGELES,CA,90024","04/19/2016","12/31/2018","10933, Wellworth Avenue, Westwood Village, Westwood, Los Angeles, Los Angeles County, California, 90024, United States",34.05678,-118.443900333333,"closed",1
"Home Business","1557 WESTWOOD BLVD,LOS ANGELES,CA,90024","01/01/2016","01/01/2018","1557, Westwood Boulevard, Westwood Village, Westwood, Los Angeles, Los Angeles County, California, 90024, United States",34.0531103529412,-118.439958,"closed",0
"ATHENA PRODUCTIONS LLC","10789 OHIO AVENUE,LOS ANGELES,CA,90024","10/05/2007","11/15/2018","10789, Ohio Avenue, Westwood, Los Angeles, Los Angeles County, California, 90024, United States",34.055491625,-118.43849525,"closed",1
"Home Business","11045 STRATHMORE DRIVE,LOS ANGELES,CA,90024","01/01/2006","12/31/2018","11045, Strathmore Drive, Westwood Village, Westwood, Los Angeles, Los Angeles County, California, 90024, United States",34.0644854,-118.451283348024,"closed",0
"ARP UNITED TRANSPORT INC","10530 WILSHIRE BLVD,LOS ANGELES,CA,90024","03/25/2014","05/01/2018","10530, Wilshire Boulevard, Westwood, Los Angeles, Los Angeles County, California, 90024, United States",34.0633413103448,-118.432473448276,"closed",1
"SURROGATE EX INC.","10970 ASHTON AVENUE,LOS ANGELES,CA,90024","01/09/2017","08/31/2018","10970, Ashton Avenue, Westwood Village, Westwood, Los Angeles, Los Angeles County, California, 90024, United States",34.0570475833333,-118.445798666667,"closed",1
"Home Business","10403 EASTBORNE AVENUE,LOS ANGELES,CA,90024","09/11/2015","06/08/2018","10403, Eastborne Avenue, Westwood, Los Angeles, Los Angeles County, California, 90024, United States",34.0583192631579,-118.424957052632,"closed",0
"Home Business","600 KELTON AVENUE,LOS ANGELES,CA,90024","06/01/2017","01/01/2018","600, Kelton Avenue, Westwood, Los Angeles, Los Angeles County, California, 90024, United States",34.066398,-118.453294,"closed",0
"ALEX NAHAI CONSULTING SERVICES INC","10717 WILSHIRE BLVD,LOS ANGELES,CA,90024","08/01/2016","12/31/2018","10717, Wilshire Boulevard, Westwood, Los Angeles, Los Angeles County, California, 90024, United States",34.060764451355,-118.436555642333,"closed",1
"VIRGIN MOBILE USA LP","10960 WILSHIRE BLVD,LOS ANGELES,CA,90024","01/01/2010","11/30/2018","Equinox Building, 10960, Wilshire Boulevard, Westwood Village, Westwood, Los Angeles, Los Angeles County, California, 90024, United States",34.05787365,-118.445925726254,"closed",1
"Home Business","10970 ASHTON AVENUE,LOS ANGELES,CA,90024","01/01/2012","01/01/2018","10970, Ashton Avenue, Westwood Village, Westwood, Los Angeles, Los Angeles County, California, 90024, United States",34.0570475833333,-118.445798666667,"closed",0
"Home Business","1607 MANNING AVENUE,LOS ANGELES,CA,90024","06/01/2016","11/01/2018","1607, Manning Avenue, Westwood, Los Angeles, Los Angeles County, California, 90024, United States",34.0548385714286,-118.433640285714,"closed",0
"PUNCHFIST, LLC","10762 MASSACHUSETTS AVENUE,LOS ANGELES,CA,90024","09/15/2017","09/12/2018","10762, Massachusetts Avenue, West Los Angeles, Westwood, Los Angeles, Los Angeles County, California, 90024, United States",34.0521466530612,-118.436137020408,"closed",1
"KEVIN SEOKJONG LEE DDS INC","10833 WILSHIRE BLVD,LOS ANGELES,CA,90024","08/01/2017","06/30/2018","10833, Wilshire Boulevard, Westwood Village, Westwood, Los Angeles, Los Angeles County, California, 90024, United States",34.059647,-118.4409302,"closed",1
"ALEX IIDA LLC","1630 HILTS AVENUE,LOS ANGELES,CA,90024","03/28/2017","01/01/2018","1630, Hilts Avenue, Westwood, Los Angeles, Los Angeles County, California, 90024, United States",34.0555432130802,-118.431949302688,"closed",1
"Home Business","10989 ROCHESTER AVENUE,LOS ANGELES,CA,90024","08/15/2016","06/17/2018","10989, Rochester Avenue, Westwood Village, Westwood, Los Angeles, Los Angeles County, California, 90024, United States",34.055470375,-118.44528925,"closed",0
"Home Business","1645 SELBY AVENUE,LOS ANGELES,CA,90024","06/01/2017","09/20/2018","1645, Selby Avenue, Westwood, Los Angeles, Los Angeles County, California, 90024, United States",34.0536637755102,-118.436521938776,"closed",0
"WHITE ARROW LLC","10960 WILSHIRE BLVD,LOS ANGELES,CA,90024","06/01/2014","12/31/2018","Equinox Building, 10960, Wilshire Boulevard, Westwood Village, Westwood, Los Angeles, Los Angeles County, California, 90024, United States",34.05787365,-118.445925726254,"closed",1
"Home Business","10866 WILSHIRE BLVD,LOS ANGELES,CA,90024","03/21/2016","01/01/2018","10866, Wilshire Boulevard, Westwood Village, Westwood, Los Angeles, Los Angeles County, California, 90024, United States",34.0591843846154,-118.442019384615,"closed",0
"Home Business","1428 KELTON AVENUE,LOS ANGELES,CA,90024","10/15/2012","04/25/2018","1428, Kelton Avenue, West Los Angeles, Los Angeles, Los Angeles County, California, 90024-3990, United States",34.05375025,-118.442615791425,"closed",0
"MARK JAY RUBIN MD INC","10866 WILSHIRE BLVD,LOS ANGELES,CA,90024","02/15/2016","01/01/2018","10866, Wilshire Boulevard, Westwood Village, Westwood, Los Angeles, Los Angeles County, California, 90024, United States",34.0591843846154,-118.442019384615,"closed",1
"BIBIGO INTERNATIONAL LLC","1091 BROXTON AVENUE,LOS ANGELES,CA,90024","12/31/2015","03/06/2018","1091, Broxton Avenue, Westwood Village, Westwood, Los Angeles, Los Angeles County, California, 90024, United States",34.0609255289426,-118.445887431763,"closed",1
"OLABS VENTURES LLC","10990 WILSHIRE BLVD,LOS ANGELES,CA,90024","04/30/2014","12/31/2018","KB Home, 10990, Wilshire Boulevard, Westwood Village, Westwood, Los Angeles, Los Angeles County, California, 90024, United States",34.0575914,-118.447167857437,"closed",1
"FRANKLIN P SHIRLEY DDS","1033 GAYLEY AVENUE,LOS ANGELES,CA,90024","05/09/1978","12/31/2018","1033, Gayley Avenue, Westwood Village, Westwood, Los Angeles, Los Angeles County, California, 90024, United States",34.061224,-118.447742141384,"closed",1
"Home Business","10940 WILSHIRE BLVD,LOS ANGELES,CA,90024","09/01/1989","12/21/2018","The Tower, 10940, Wilshire Boulevard, Westwood Village, Westwood, Los Angeles, Los Angeles County, California, 90024, United States",34.05804765,-118.445077273047,"closed",0
"INNOVATIVE BIOENGINEERING SOLUTIONS INC","10720 OHIO AVENUE,LOS ANGELES,CA,90024","01/24/2012","12/31/2018","10720, Ohio Avenue, Westwood, Los Angeles, Los Angeles County, California, 90024, United States",34.0570043333333,-118.435541666667,"closed",1
"SOS SERVICE ADVANTAGE LLC","10866 WILSHIRE BLVD,LOS ANGELES,CA,90024","12/25/2016","12/25/2018","10866, Wilshire Boulevard, Westwood Village, Westwood, Los Angeles, Los Angeles County, California, 90024, United States",34.0591843846154,-118.442019384615,"closed",1
"ROBERT GOLD COMM SYSTEMS INC","10575 ASHTON AVENUE,LOS ANGELES,CA,90024","08/01/1975","11/26/2018","10575, Ashton Avenue, Westwood Village, Westwood, Los Angeles, Los Angeles County, California, 90024, United States",34.0613484285714,-118.432003571429,"closed",1
"Home Business","1051 GLENDON AVENUE,LOS ANGELES,CA,90024","12/01/2004","05/27/2018","1051, Glendon Avenue, Westwood Village, Westwood, Los Angeles, Los Angeles County, California, 90024, United States",34.0616614489796,-118.444336816327,"closed",0
"Home Business","10755 MASSACHUSETTS AVENUE,LOS ANGELES,CA,90024","11/30/2015","08/31/2018","10755, Massachusetts Avenue, West Los Angeles, Westwood, Los Angeles, Los Angeles County, California, 90024, United States",34.0523210204082,-118.436197469388,"closed",0
"I.AM.EKO.CYCLE, LLC","10960 WILSHIRE BLVD,LOS ANGELES,CA,90024","06/14/2011","03/06/2018","Equinox Building, 10960, Wilshire Boulevard, Westwood Village, Westwood, Los Angeles, Los Angeles County, California, 90024, United States",34.05787365,-118.445925726254,"closed",1
"Home Business","10877 WILSHIRE BLVD,LOS ANGELES,CA,90024","02/01/2014","09/01/2018","10877, Wilshire Boulevard, Westwood Village, Westwood, Los Angeles, Los Angeles County, California, 90024, United States",34.05927025,-118.4423481,"closed",0
"WELLS FARGO CLEARING SERVICES LLC","10920 WILSHIRE BLVD,LOS ANGELES,CA,90024","01/01/2011","01/31/2018","UCLA Wilshire Center, 10920, Wilshire Boulevard, Westwood Village, Westwood, Los Angeles, Los Angeles County, California, 90024, United States",34.0580985,-118.444642405786,"closed",1
"Home Business","1034 SELBY AVENUE,LOS ANGELES,CA,90024","08/01/2005","02/05/2018","1034, Selby Avenue, Westwood Village, Westwood, Los Angeles, Los Angeles County, California, 90024, United States",34.0627470480602,-118.438156866512,"closed",0
"Home Business","10535 WILSHIRE BLVD,LOS ANGELES,CA,90024","02/01/2011","02/27/2018","10535, Wilshire Boulevard, Westwood, Los Angeles, Los Angeles County, California, 90024, United States",34.0631498,-118.43275636,"closed",0
"NABI INC","10880 WILSHIRE BLVD,LOS ANGELES,CA,90024","06/17/2010","01/26/2018","U.S. Coast Guard - Motion Picture and Television Office, 10880, Wilshire Boulevard, Westwood Village, Westwood, Los Angeles, Los Angeles County, California, 90024, United States",34.058617,-118.4432767,"closed",1
"ROBERT A RICCO INC","10866 WILSHIRE BLVD,LOS ANGELES,CA,90024","01/01/2014","01/01/2018","10866, Wilshire Boulevard, Westwood Village, Westwood, Los Angeles, Los Angeles County, California, 90024, United States",34.0591843846154,-118.442019384615,"closed",1
"Home Business","1296 HOLMBY AVENUE,LOS ANGELES,CA,90024","06/19/2013","02/14/2018","1296, Holmby Avenue, Westwood, Los Angeles, Los Angeles County, California, 90024, United States",34.0638724693878,-118.428221938776,"closed",0
"AMIR FAGHFOORY MD APC","10535 WILSHIRE BLVD,LOS ANGELES,CA,90024","01/01/2016","01/01/2018","10535, Wilshire Boulevard, Westwood, Los Angeles, Los Angeles County, California, 90024, United States",34.0631498,-118.43275636,"closed",1
"Home Business","1663 SELBY AVENUE,LOS ANGELES,CA,90024","05/11/2017","03/09/2018","1663, Selby Avenue, Westwood, Los Angeles, Los Angeles County, California, 90024, United States",34.0533531836735,-118.436253959184,"closed",0
"KAS ALLEN HEALTHCARE ADVOCACY LLC","1314 WESTWOOD BLVD,LOS ANGELES,CA,90024","08/31/2012","12/31/2018","1314, Westwood Boulevard, Westwood Village, Westwood, Los Angeles, Los Angeles County, California, 90024, United States",34.056753625,-118.442492166667,"closed",1
"AVT VENTURES LLC","10960 WILSHIRE BLVD,LOS ANGELES,CA,90024","01/01/2012","07/01/2018","Equinox Building, 10960, Wilshire Boulevard, Westwood Village, Westwood, Los Angeles, Los Angeles County, California, 90024, United States",34.05787365,-118.445925726254,"closed",1
"NIGRO KARLIN SEGAL FELDSTEIN & BOLNO, LLC","10960 WILSHIRE BLVD,LOS ANGELES,CA,90024","10/01/2013","03/31/2018","Equinox Building, 10960, Wilshire Boulevard, Westwood Village, Westwood, Los Angeles, Los Angeles County, California, 90024, United States",34.05787365,-118.445925726254,"closed",1
"PAYA ENTERPRISES INC","1267 WESTWOOD BLVD,LOS ANGELES,CA,90024","01/02/2009","12/31/2018","1267, Westwood Boulevard, Westwood Village, Westwood, Los Angeles, Los Angeles County, California, 90024, United States",34.0572669591837,-118.443022897959,"closed",1
"STRATHMORE PROPERTIES LLC","10998 ROEBLING AVENUE,LOS ANGELES,CA,90024","05/22/2003","10/22/2018","10998, Roebling Avenue, Westwood Village, Westwood, Los Angeles, Los Angeles County, California, 90024, United States",34.06453,-118.44978,"closed",1
"CHRISTMAS FOURTEEN LLC","10640 ROCHESTER AVENUE,LOS ANGELES,CA,90024","06/01/2013","12/31/2018","10640, Rochester Avenue, Westwood, Los Angeles, Los Angeles County, California, 90024, United States",34.0582894358235,-118.433449390923,"closed",1
"SIZE RECORDS USA LLC","10960 WILSHIRE BLVD,LOS ANGELES,CA,90024","12/15/2014","12/20/2018","Equinox Building, 10960, Wilshire Boulevard, Westwood Village, Westwood, Los Angeles, Los Angeles County, California, 90024, United States",34.05787365,-118.445925726254,"closed",1
"IL FORNO LLC","1076 GAYLEY AVENUE,LOS ANGELES,CA,90024","09/13/2013","11/11/2018","Mio Babbo's, 1076, Gayley Avenue, Westwood Village, Westwood, Los Angeles, Los Angeles County, California, 90024, United States",34.0607578,-118.44674,"closed",1
"MR JINGLES CHRISTMAS TREE CORPORATION","1300 WESTWOOD BLVD,LOS ANGELES,CA,90024","11/05/2018","12/26/2018","1300, Westwood Boulevard, Westwood Village, Westwood, Los Angeles, Los Angeles County, California, 90024, United States",34.056926,-118.442596,"closed",1
"Home Business","10880 WILSHIRE BLVD,LOS ANGELES,CA,90024","04/08/2011","12/31/2018","U.S. Coast Guard - Motion Picture and Television Office, 10880, Wilshire Boulevard, Westwood Village, Westwood, Los Angeles, Los Angeles County, California, 90024, United States",34.058617,-118.4432767,"closed",0
"Home Business","1616 WARNALL AVENUE,LOS ANGELES,CA,90024","01/01/2000","12/31/2018","1616, Warnall Avenue, Westwood, Los Angeles, Los Angeles County, California, 90024, United States",34.0620281408348,-118.42313060076,"closed",0
"Home Business","245 WOODRUFF AVENUE,LOS ANGELES,CA,90024","06/01/2014","06/30/2018","245, Woodruff Avenue, Westwood, Los Angeles, Los Angeles County, California, 90024, United States",34.0779958251566,-118.435794967464,"closed",0
"1325 KARI LEE LLC","1438 WESTWOOD BLVD,LOS ANGELES,CA,90024","08/03/2015","08/09/2018","1438, Westwood Boulevard, Westwood Village, Westwood, Los Angeles, Los Angeles County, California, 90024, United States",34.0548695102041,-118.441229510204,"closed",1
"MARCUS, JOHN, DIA CHRISTINA, O. NICOLAS THEODORE IRRV TRUST","1567 WESTWOOD BLVD,LOS ANGELES,CA,90024","01/01/1970","07/03/2018","1567, Westwood Boulevard, Westwood Village, Westwood, Los Angeles, Los Angeles County, California, 90024, United States",34.0529625588235,-118.4398305,"closed",1
"MODERN PARKING INC","1031 BROXTON AVENUE,LOS ANGELES,CA,90024","05/09/2008","01/31/2018","1031, Broxton Avenue, Westwood Village, Westwood, Los Angeles, Los Angeles County, California, 90024, United States",34.06186905,-118.446977405269,"closed",1
"JONAGOLD LLC","454 KELTON AVENUE,LOS ANGELES,CA,90024","04/10/2008","10/29/2018","454, Kelton Avenue, Westwood, Los Angeles, Los Angeles County, California, 90024, United States",34.0692559591837,-118.453655367347,"closed",1
"LAW OFFICE OF BRADLEY S. SANDLER, APC","10866 WILSHIRE BLVD,LOS ANGELES,CA,90024","11/01/2016","04/01/2018","10866, Wilshire Boulevard, Westwood Village, Westwood, Los Angeles, Los Angeles County, California, 90024, United States",34.0591843846154,-118.442019384615,"closed",1
"FINGERS CROSSED INC","1105 GLENDON AVENUE,LOS ANGELES,CA,90024","08/01/2010","05/31/2018","1105, Glendon Avenue, Westwood Village, Westwood, Los Angeles, Los Angeles County, California, 90024, United States",34.0606045306122,-118.444393142857,"closed",1
"NANCI COHEN","10490 WILSHIRE BLVD,LOS ANGELES,CA,90024","01/01/1999","12/31/2018","Wilshire Boulevard, Westwood, Los Angeles, Los Angeles County, California, 90024, United States",34.0611221,-118.4346192,"closed",1
"Home Business","10503 WILKINS AVENUE,LOS ANGELES,CA,90024","01/01/2000","01/01/2018","10503, Wilkins Avenue, Westwood, Los Angeles, Los Angeles County, California, 90024, United States",34.0589621666667,-118.429001083333,"closed",0
"GARY W PHILLIPS & ASSOCIATES INC","1308 COMSTOCK AVENUE,LOS ANGELES,CA,90024","01/01/1975","12/31/2018","1308, Comstock Avenue, Westwood, Los Angeles, Los Angeles County, California, 90024, United States",34.0660998761616,-118.425173552839,"closed",1
"SBDML HOLDINGS INC","1585 MANNING AVENUE,LOS ANGELES,CA,90024","01/01/2016","11/28/2018","1585, Manning Avenue, Westwood, Los Angeles, Los Angeles County, California, 90024, United States",34.0553375555556,-118.434070777778,"closed",1
"Home Business","10590 WILSHIRE BLVD,LOS ANGELES,CA,90024","05/01/1984","12/31/2018","10590, Wilshire Boulevard, Westwood, Los Angeles, Los Angeles County, California, 90024, United States",34.0616399893014,-118.433301114191,"closed",0
"JACARANDA LLC","621 MIDVALE AVENUE,LOS ANGELES,CA,90024","08/26/2008","11/13/2018","621, Midvale Avenue, Westwood Village, Westwood, Los Angeles, Los Angeles County, California, 90024, United States",34.0659117762237,-118.451879969304,"closed",1
"SIZE LLC","10960 WILSHIRE BLVD,LOS ANGELES,CA,90024","02/27/2014","12/20/2018","Equinox Building, 10960, Wilshire Boulevard, Westwood Village, Westwood, Los Angeles, Los Angeles County, California, 90024, United States",34.05787365,-118.445925726254,"closed",1
"Home Business","1051 GLENDON AVENUE,LOS ANGELES,CA,90024","08/01/2013","12/31/2018","1051, Glendon Avenue, Westwood Village, Westwood, Los Angeles, Los Angeles County, California, 90024, United States",34.0616614489796,-118.444336816327,"closed",0
"SHELLS BY DESIGN LLC","1585 MANNING AVENUE,LOS ANGELES,CA,90024","01/01/2016","11/28/2018","1585, Manning Avenue, Westwood, Los Angeles, Los Angeles County, California, 90024, United States",34.0553375555556,-118.434070777778,"closed",1
"Home Business","10607 HOLMAN AVENUE,LOS ANGELES,CA,90024","01/01/2003","12/26/2018","10607, Holman Avenue, Westwood, Los Angeles, Los Angeles County, California, 90024, United States",34.0552713571429,-118.431051214286,"closed",0
"LAW OFFICES OF ROBIN B HILMAN P C","10540 LINDBROOK DRIVE,LOS ANGELES,CA,90024","08/13/2015","10/09/2018","10540, Lindbrook Drive, Westwood Village, Westwood, Los Angeles, Los Angeles County, California, 90024, United States",34.0639015949034,-118.433602597602,"closed",1
"SP PLUS CORPORATION","947 TIVERTON AVENUE,LOS ANGELES,CA,90024","03/01/1981","03/31/2018","947, Tiverton Avenue, Westwood Village, Westwood, Los Angeles, Los Angeles County, California, 90024, United States",34.0625909,-118.442991499463,"closed",1
"URTHO INC","10946 WEYBURN AVENUE,LOS ANGELES,CA,90024","09/01/2003","03/30/2018","10946, Weyburn Avenue, Westwood Village, Westwood, Los Angeles, Los Angeles County, California, 90024, United States",34.062614375,-118.4468035,"closed",1
"Home Business","1632 WESTWOOD BLVD,LOS ANGELES,CA,90024","04/06/2015","05/08/2018","1632, Westwood Boulevard, Westwood, Los Angeles, Los Angeles County, California, 90024, United States",34.052557,-118.439236877551,"closed",0
"Home Business","1388 WESTWOOD BLVD,LOS ANGELES,CA,90024","07/01/2004","06/01/2018","1388, Westwood Boulevard, Westwood Village, Westwood, Los Angeles, Los Angeles County, California, 90024, United States",34.05560575,-118.441800625,"closed",0
"Home Business","1460 WESTWOOD BLVD,LOS ANGELES,CA,90024","05/12/2017","02/01/2018","1460, Westwood Boulevard, Westwood Village, Westwood, Los Angeles, Los Angeles County, California, 90024, United States",34.0546364897959,-118.441029489796,"closed",0
"Home Business","10366 WILSHIRE BLVD,LOS ANGELES,CA,90024","01/01/2016","12/29/2018","Wilshire Boulevard, Westwood, Los Angeles, Los Angeles County, California, 90024, United States",34.0611221,-118.4346192,"closed",0
"Home Business","10611 OHIO AVENUE,LOS ANGELES,CA,90024","01/01/2010","12/31/2018","10611, Ohio Avenue, Westwood, Los Angeles, Los Angeles County, California, 90024, United States",34.0577559130738,-118.432520522608,"closed",0
"PARTYBABY LLC","10960 WILSHIRE BLVD,LOS ANGELES,CA,90024","11/02/2015","06/01/2018","Equinox Building, 10960, Wilshire Boulevard, Westwood Village, Westwood, Los Angeles, Los Angeles County, California, 90024, United States",34.05787365,-118.445925726254,"closed",1
"ZOOM ERRANDS INC","10850 WILSHIRE BLVD,LOS ANGELES,CA,90024","05/16/2010","12/30/2018","English Language Center - ELC Los Angeles, 10850, Wilshire Boulevard, Westwood Village, Westwood, Los Angeles, Los Angeles County, California, 90024, United States",34.05913165,-118.44120737686,"closed",1
"PARKING CONCEPTS INC","10450 WILSHIRE BLVD,LOS ANGELES,CA,90024","12/03/2013","04/30/2018","Wilshire Boulevard, Westwood, Los Angeles, Los Angeles County, California, 90024, United States",34.0611221,-118.4346192,"closed",1
"LENSABL INC","1385 WESTWOOD BLVD,LOS ANGELES,CA,90024","05/01/2016","12/31/2018","1385, Westwood Boulevard, Westwood Village, Westwood, Los Angeles, Los Angeles County, California, 90024, United States",34.05558625,-118.442009875,"closed",1
"VAPE CENTRIC INC","945 WESTWOOD BLVD,LOS ANGELES,CA,90024","11/15/2018","12/31/2018","945, Westwood Boulevard, Westwood Village, Westwood, Los Angeles, Los Angeles County, California, 90024, United States",34.0629357388278,-118.445187556392,"closed",1
"PAIRFORCE LLC","10990 WILSHIRE BLVD,LOS ANGELES,CA,90024","10/15/2015","12/31/2018","KB Home, 10990, Wilshire Boulevard, Westwood Village, Westwood, Los Angeles, Los Angeles County, California, 90024, United States",34.0575914,-118.447167857437,"closed",1
"MOZZAFIATI LLC","1657 MALCOLM AVENUE,LOS ANGELES,CA,90024","01/01/2018","12/31/2018","1657, Malcolm Avenue, Westwood, Los Angeles, Los Angeles County, California, 90024, United States",34.0530390753717,-118.437285814069,"closed",1
"M & S VALET PARKING SERVICES LLC","1781 WESTWOOD BLVD,LOS ANGELES,CA,90024","01/15/2017","09/30/2018","1781, Westwood Boulevard, Westwood, Los Angeles, Los Angeles County, California, 90024, United States",34.0502257142857,-118.437470979592,"closed",1
"Home Business","10920 WILSHIRE BLVD,LOS ANGELES,CA,90024","01/01/2015","12/31/2018","UCLA Wilshire Center, 10920, Wilshire Boulevard, Westwood Village, Westwood, Los Angeles, Los Angeles County, California, 90024, United States",34.0580985,-118.444642405786,"closed",0
"CATHY GRAF MARRIAGE & FAMILY THERAPY INC","1314 WESTWOOD BLVD,LOS ANGELES,CA,90024","03/02/2011","12/31/2018","1314, Westwood Boulevard, Westwood Village, Westwood, Los Angeles, Los Angeles County, California, 90024, United States",34.056753625,-118.442492166667,"closed",1
"SPRAZZO CUCINA ITALIANA INC","1389 WESTWOOD BLVD,LOS ANGELES,CA,90024","09/04/2002","12/31/2018","1389, Westwood Boulevard, Westwood Village, Westwood, Los Angeles, Los Angeles County, California, 90024, United States",34.05553275,-118.441977625,"closed",1
"Home Business","1626 MALCOLM AVENUE,LOS ANGELES,CA,90024","10/03/2014","12/31/2018","1626, Malcolm Avenue, Westwood, Los Angeles, Los Angeles County, California, 90024, United States",34.0536742400474,-118.437273239257,"closed",0
"THE GREEN PARTY LLC","10960 WILSHIRE BLVD,LOS ANGELES,CA,90024","01/01/2013","12/31/2018","Equinox Building, 10960, Wilshire Boulevard, Westwood Village, Westwood, Los Angeles, Los Angeles County, California, 90024, United States",34.05787365,-118.445925726254,"closed",1
"DATELINE TV HOLDINGS, INC","10580 WILSHIRE BLVD,LOS ANGELES,CA,90024","11/21/1991","12/31/2018","10580, Wilshire Boulevard, Westwood, Los Angeles, Los Angeles County, California, 90024, United States",34.0618006617716,-118.433048683728,"closed",1
"Home Business","10641 LINDBROOK DRIVE,LOS ANGELES,CA,90024","09/01/1999","02/01/2018","10641, Lindbrook Drive, Westwood Village, Westwood, Los Angeles, Los Angeles County, California, 90024, United States",34.0621086821292,-118.435435698268,"closed",0
"COLLEGE TOWN INTERNATIONAL LLC","1100 GLENDON AVENUE,LOS ANGELES,CA,90024","10/20/2014","12/31/2018","Westwood Center, 1100, Glendon Avenue, Westwood Village, Westwood, Los Angeles, Los Angeles County, California, 90024, United States",34.0605418,-118.443495411629,"closed",1
"TARA INTERNATIONAL TRADING INC","10590 WILSHIRE BLVD,LOS ANGELES,CA,90024","10/04/2011","12/31/2018","10590, Wilshire Boulevard, Westwood, Los Angeles, Los Angeles County, California, 90024, United States",34.0616399893014,-118.433301114191,"closed",1
"WELOVESNOW INC","1135 WESTWOOD BLVD,LOS ANGELES,CA,90024","06/15/2013","12/31/2018","Poke Bar, 1135, Westwood Boulevard, Westwood Village, Westwood, Los Angeles, Los Angeles County, California, 90024, United States",34.0599716,-118.4452059,"closed",1
"A SHAWN VEISEH MD APC","100 UCLA MEDICAL PLAZA,LOS ANGELES,CA,90024","01/03/2000","10/31/2018","",34.06558,-118.44576,"closed",1
"Home Business","10365  ASHTON AVENUE,LOS ANGELES,CA,90024","01/01/2015","12/31/2018","10365, Ashton Avenue, Westwood Village, Westwood, Los Angeles, Los Angeles County, California, 90024, United States",34.0664023333333,-118.427254916667,"closed",0
"Home Business","1516 WESTWOOD BLVD,LOS ANGELES,CA,90024","01/09/1995","12/31/2018","1516, Westwood Boulevard, Westwood Village, Westwood, Los Angeles, Los Angeles County, California, 90024, United States",34.0538699183673,-118.44036944898,"closed",0
"MANAGED CARE RESOURCES INC","1516 WESTWOOD BLVD,LOS ANGELES,CA,90024","01/02/1989","12/31/2018","1516, Westwood Boulevard, Westwood Village, Westwood, Los Angeles, Los Angeles County, California, 90024, United States",34.0538699183673,-118.44036944898,"closed",1
"Home Business","765 WEYBURN PLACE,LOS ANGELES,CA,90024","11/15/2013","12/31/2018","Magnolia Court, 765, Weyburn Place, Westwood Village, Westwood, Los Angeles, Los Angeles County, California, 90024, United States",34.06367585,-118.450334367801,"closed",0
"LIVESTATION.COM INC","10880 WILSHIRE BLVD,LOS ANGELES,CA,90024","06/04/2015","12/31/2018","U.S. Coast Guard - Motion Picture and Television Office, 10880, Wilshire Boulevard, Westwood Village, Westwood, Los Angeles, Los Angeles County, California, 90024, United States",34.058617,-118.4432767,"closed",1
"Home Business","1390 KELTON AVENUE,LOS ANGELES,CA,90024","11/01/2001","10/01/2018","1390, Kelton Avenue, Westwood, Los Angeles, Los Angeles County, California, 90024, United States",34.0545244435208,-118.443546995562,"closed",0
"BLOOD MONEY FILMS, LLC","1258  DEVON AVENUE,LOS ANGELES,CA,90024","02/22/2017","12/31/2018","1258, Devon Avenue, Westwood, Los Angeles, Los Angeles County, California, 90024, United States",34.0654624114566,-118.426242314444,"closed",1
"CHRISTINA NATION CORRIVEAU","10600 EASTBORNE AVENUE,LOS ANGELES,CA,90024","08/10/2007","12/31/2018","10600, Eastborne Avenue, Westwood, Los Angeles, Los Angeles County, California, 90024, United States",34.054493,-118.430211,"closed",1
"HQ PACIFIC RIM RESOURCES LLC","10920 WILSHIRE BLVD,LOS ANGELES,CA,90024","08/22/2013","12/31/2018","UCLA Wilshire Center, 10920, Wilshire Boulevard, Westwood Village, Westwood, Los Angeles, Los Angeles County, California, 90024, United States",34.0580985,-118.444642405786,"closed",1
"Home Business","1779 WESTWOOD BLVD,LOS ANGELES,CA,90024","01/02/2017","12/31/2018","1779, Westwood Boulevard, Westwood, Los Angeles, Los Angeles County, California, 90024, United States",34.0502625714286,-118.437502755102,"closed",0
"ALEXANDER BYSTRITSKY MD","10850 WILSHIRE BLVD,LOS ANGELES,CA,90024","02/01/2018","12/31/2018","English Language Center - ELC Los Angeles, 10850, Wilshire Boulevard, Westwood Village, Westwood, Los Angeles, Los Angeles County, California, 90024, United States",34.05913165,-118.44120737686,"closed",1
"BODY HIGH LLC","10960 WILSHIRE BLVD,LOS ANGELES,CA,90024","04/19/2013","12/31/2018","Equinox Building, 10960, Wilshire Boulevard, Westwood Village, Westwood, Los Angeles, Los Angeles County, California, 90024, United States",34.05787365,-118.445925726254,"closed",1
"Home Business","10960 WILSHIRE BLVD,LOS ANGELES,CA,90024","04/16/2013","12/31/2018","Equinox Building, 10960, Wilshire Boulevard, Westwood Village, Westwood, Los Angeles, Los Angeles County, California, 90024, United States",34.05787365,-118.445925726254,"closed",0
"Home Business","10510 WELLWORTH AVENUE,LOS ANGELES,CA,90024","05/24/2005","12/31/2018","10510, Wellworth Avenue, Westwood Village, Westwood, Los Angeles, Los Angeles County, California, 90024, United States",34.0612570223708,-118.430718155152,"closed",0
"LUC INC","1386 WESTWOOD BLVD,LOS ANGELES,CA,90024","09/12/2000","05/30/2018","1386, Westwood Boulevard, Westwood Village, Westwood, Los Angeles, Los Angeles County, California, 90024, United States",34.0556325,-118.44181675,"closed",1
"RER LLC","1067 GLENDON AVENUE,LOS ANGELES,CA,90024","08/28/2009","12/31/2018","1067, Glendon Avenue, Westwood Village, Westwood, Los Angeles, Los Angeles County, California, 90024, United States",34.0614126326531,-118.444397877551,"closed",1
"Home Business","10921 WILSHIRE BLVD,LOS ANGELES,CA,90024","08/15/2013","12/31/2018","Westwood Medical Plaza, 10921, Wilshire Boulevard, Westwood Village, Westwood, Los Angeles, Los Angeles County, California, 90024, United States",34.05886315,-118.444825522401,"closed",0
"MAGROUND LLC","10787 MASSACHUSETTS AVENUE,LOS ANGELES,CA,90024","09/04/2013","04/23/2018","10787, Massachusetts Avenue, West Los Angeles, Westwood, Los Angeles, Los Angeles County, California, 90024, United States",34.0521195510204,-118.436475673469,"closed",1
"Home Business","10850 WILSHIRE BLVD,LOS ANGELES,CA,90024","01/01/2003","02/26/2018","English Language Center - ELC Los Angeles, 10850, Wilshire Boulevard, Westwood Village, Westwood, Los Angeles, Los Angeles County, California, 90024, United States",34.05913165,-118.44120737686,"closed",0
"BEVERLY PLUS CLEANERS INC","1786 WESTWOOD BLVD,LOS ANGELES,CA,90024","12/17/2008","01/07/2018","1786, Westwood Boulevard, Westwood, Los Angeles, Los Angeles County, California, 90024, United States",34.0502111428571,-118.437214653061,"closed",1
"ANDREW H SELESNICK ALC","10880 WILSHIRE BLVD,LOS ANGELES,CA,90024","01/01/1996","12/31/2018","U.S. Coast Guard - Motion Picture and Television Office, 10880, Wilshire Boulevard, Westwood Village, Westwood, Los Angeles, Los Angeles County, California, 90024, United States",34.058617,-118.4432767,"closed",1
"AUJLA BROTHERS INC","1321 WESTWOOD BLVD,LOS ANGELES,CA,90024","11/01/2016","12/31/2018","1321, Westwood Boulevard, Westwood Village, Westwood, Los Angeles, Los Angeles County, California, 90024, United States",34.05660575,-118.442624666667,"closed",1
"AARON THOMPSON / GARNET VENTURES INC","10900 WILSHIRE BLVD,LOS ANGELES,CA,90024","01/25/2018","12/31/2018","Murdock Plaza, 10900, Wilshire Boulevard, Westwood Village, Westwood, Los Angeles, Los Angeles County, California, 90024, United States",34.05833715,-118.444065347594,"closed",1
"Home Business","1383 MIDVALE AVENUE,LOS ANGELES,CA,90024","10/01/1962","12/31/2018","1383, 1385, 1387, Midvale Avenue, West Los Angeles, Los Angeles, Los Angeles County, California, 90024-3990, United States",34.0551025,-118.443162028618,"closed",0
"ALLIANCE UNITED PARKING SYSTEMS LLC","1266 WESTWOOD BLVD,LOS ANGELES,CA,90024","01/02/2015","04/01/2018","Fresh Corn Grill, 1266, Westwood Boulevard, Westwood Village, Westwood, Los Angeles, Los Angeles County, California, 90024-3990, United States",34.0575829,-118.4429283,"closed",1
"Home Business","10450 EASTBORNE AVENUE,LOS ANGELES,CA,90024","01/01/2016","12/31/2018","10450, Eastborne Avenue, Westwood, Los Angeles, Los Angeles County, California, 90024, United States",34.057263862069,-118.426180793103,"closed",0
"PROPER PARKING CO","1300 WESTWOOD BLVD,LOS ANGELES,CA,90024","08/08/2013","10/01/2018","1300, Westwood Boulevard, Westwood Village, Westwood, Los Angeles, Los Angeles County, California, 90024, United States",34.056926,-118.442596,"closed",1
"Home Business","1752  WESTWOOD BLVD,LOS ANGELES,CA,90024","01/03/2006","12/31/2018","1752, Westwood Boulevard, Westwood, Los Angeles, Los Angeles County, California, 90024, United States",34.0508377142857,-118.437754836735,"closed",0
"MARJORIE NEWMAN LIVING TRUST","11045 STRATHMORE DRIVE,LOS ANGELES,CA,90024","04/24/1985","12/31/2018","11045, Strathmore Drive, Westwood Village, Westwood, Los Angeles, Los Angeles County, California, 90024, United States",34.0644854,-118.451283348024,"closed",1
"SGV RETAIL APPAREL LLC","1009 BROXTON AVENUE,LOS ANGELES,CA,90024","01/01/2013","01/17/2018","1009, Broxton Avenue, Westwood Village, Westwood, Los Angeles, Los Angeles County, California, 90024, United States",34.0622634506046,-118.447060357335,"closed",1
"DAYE JACK TOURING INC","10960 WILSHIRE BLVD,LOS ANGELES,CA,90024","10/08/2015","12/31/2018","Equinox Building, 10960, Wilshire Boulevard, Westwood Village, Westwood, Los Angeles, Los Angeles County, California, 90024, United States",34.05787365,-118.445925726254,"closed",1
"CENTRAL Z. INC","10959 ROCHESTER AVENUE,LOS ANGELES,CA,90024","04/12/2016","12/31/2018","10959, Rochester Avenue, Westwood Village, Westwood, Los Angeles, Los Angeles County, California, 90024, United States",34.0556485,-118.444618,"closed",1
"Home Business","121 E WILSHIRE STREET,LOS ANGELES,CA,90024","09/01/2017","12/31/2018","The Wilshire, Wilshire Boulevard, Westwood, Los Angeles, Los Angeles County, California, 90024, United States",34.06151465,-118.432771161966,"closed",0
"Home Business","1145 WESTWOOD BLVD,LOS ANGELES,CA,90024","01/01/2009","12/31/2018","1145, Westwood Boulevard, Westwood Village, Westwood, Los Angeles, Los Angeles County, California, 90024, United States",34.0601472045685,-118.445332470182,"closed",0
"BARBARIAN ENTERTAINMENT INC","10960 WILSHIRE BLVD,LOS ANGELES,CA,90024","01/01/2016","01/01/2018","Equinox Building, 10960, Wilshire Boulevard, Westwood Village, Westwood, Los Angeles, Los Angeles County, California, 90024, United States",34.05787365,-118.445925726254,"closed",1
"JUBARISS CORP","1451 VETERAN AVENUE,LOS ANGELES,CA,90024","06/05/2014","12/31/2018","1451, Veteran Avenue, Westwood, Los Angeles, Los Angeles County, California, 90024, United States",34.0529583265306,-118.443731530612,"closed",1
"WRIGHT BANKS CO INC","1334 WESTWOOD BLVD,LOS ANGELES,CA,90024","09/01/1984","12/31/2018","1334, Westwood Boulevard, Westwood Village, Westwood, Los Angeles, Los Angeles County, California, 90024, United States",34.056507375,-118.442343833333,"closed",1
"NSM CREATIVE INC","10960 WILSHIRE BLVD,LOS ANGELES,CA,90024","01/01/2018","01/01/2018","Equinox Building, 10960, Wilshire Boulevard, Westwood Village, Westwood, Los Angeles, Los Angeles County, California, 90024, United States",34.05787365,-118.445925726254,"closed",1
"MODERN FABRICS INC","10650 KINNARD AVENUE,LOS ANGELES,CA,90024","10/27/2014","12/31/2018","10650, Kinnard Avenue, Westwood, Los Angeles, Los Angeles County, California, 90024, United States",34.0557077058824,-118.432804176471,"closed",1
"Home Business","10501 WILSHIRE BLVD,LOS ANGELES,CA,90024","01/04/1983","12/31/2018","10501, Wilshire Boulevard, Westwood, Los Angeles, Los Angeles County, California, 90024, United States",34.064163,-118.432364,"closed",0
"HEAVENLY COUTURE INC","1065 BROXTON AVENUE,LOS ANGELES,CA,90024","02/19/2016","03/13/2018","1065, Broxton Avenue, Westwood Village, Westwood, Los Angeles, Los Angeles County, California, 90024, United States",34.0613497480062,-118.446259334993,"closed",1
"ARIAN LOUNGE INC","1563 WESTWOOD BLVD,LOS ANGELES,CA,90024","06/15/2014","01/01/2018","1563, Westwood Boulevard, Westwood Village, Westwood, Los Angeles, Los Angeles County, California, 90024, United States",34.0530216764706,-118.4398815,"closed",1
"GLENDON CONCEPTS LLC","1071 GLENDON AVENUE,LOS ANGELES,CA,90024","04/01/2010","12/31/2018","1071, Glendon Avenue, Westwood Village, Westwood, Los Angeles, Los Angeles County, California, 90024, United States",34.0613504285714,-118.444413142857,"closed",1
"GLEICHER COLKER GROUP INC","1385 WESTWOOD BLVD,LOS ANGELES,CA,90024","01/01/2017","12/31/2018","1385, Westwood Boulevard, Westwood Village, Westwood, Los Angeles, Los Angeles County, California, 90024, United States",34.05558625,-118.442009875,"closed",1
"Home Business","1363 WESTWOOD BLVD,LOS ANGELES,CA,90024","01/01/2001","12/31/2018","1363, Westwood Boulevard, Westwood Village, Westwood, Los Angeles, Los Angeles County, California, 90024, United States",34.0558805,-118.44218725,"closed",0
"58 12 DESIGN LAB INC","1736 WESTWOOD BLVD,LOS ANGELES,CA,90024","09/01/2015","12/31/2018","1736, Westwood Boulevard, Westwood, Los Angeles, Los Angeles County, California, 90024, United States",34.0511325714286,-118.438009040816,"closed",1
"Home Business","10920 WILSHIRE BLVD,LOS ANGELES,CA,90024","01/01/2014","12/31/2018","UCLA Wilshire Center, 10920, Wilshire Boulevard, Westwood Village, Westwood, Los Angeles, Los Angeles County, California, 90024, United States",34.0580985,-118.444642405786,"closed",0
"Home Business","10724 WILSHIRE BLVD,LOS ANGELES,CA,90024","04/01/1980","12/31/2018","10724, Wilshire Boulevard, Westwood, Los Angeles, Los Angeles County, California, 90024, United States",34.0605339358381,-118.436825391376,"closed",0
"CARAVAN TOURING INC","10960 WILSHIRE BLVD,LOS ANGELES,CA,90024","08/27/2013","12/31/2018","Equinox Building, 10960, Wilshire Boulevard, Westwood Village, Westwood, Los Angeles, Los Angeles County, California, 90024, United States",34.05787365,-118.445925726254,"closed",1
"MAYHEM GLASS WESTWOOD LLC","945 WESTWOOD BLVD,LOS ANGELES,CA,90024","05/14/2013","12/31/2018","945, Westwood Boulevard, Westwood Village, Westwood, Los Angeles, Los Angeles County, California, 90024, United States",34.0629357388278,-118.445187556392,"closed",1
"INFORMA BUSINESS INTELLIGENCE, INC.","10866 WILSHIRE BLVD,LOS ANGELES,CA,90024","02/26/2016","12/31/2018","10866, Wilshire Boulevard, Westwood Village, Westwood, Los Angeles, Los Angeles County, California, 90024, United States",34.0591843846154,-118.442019384615,"closed",1
"DAYE JACK MUSIC LLC","10960 WILSHIRE BLVD,LOS ANGELES,CA,90024","10/07/2015","12/31/2018","Equinox Building, 10960, Wilshire Boulevard, Westwood Village, Westwood, Los Angeles, Los Angeles County, California, 90024, United States",34.05787365,-118.445925726254,"closed",1
"FAMOUSLY BLACK INC","10960 WILSHIRE BLVD,LOS ANGELES,CA,90024","08/06/2009","12/31/2018","Equinox Building, 10960, Wilshire Boulevard, Westwood Village, Westwood, Los Angeles, Los Angeles County, California, 90024, United States",34.05787365,-118.445925726254,"closed",1
"Home Business","1062 WESTWOOD BLVD,LOS ANGELES,CA,90024","01/22/2001","12/31/2018","1062, Westwood Boulevard, Westwood Village, Westwood, Los Angeles, Los Angeles County, California, 90024, United States",34.061473877551,-118.44521644898,"closed",0
"CALIFORNIA CLINICAL RESEARCH FUNDATION LLC","10475 EASTBORNE AVENUE,LOS ANGELES,CA,90024","03/24/2011","12/31/2018","10475, Eastborne Avenue, Westwood, Los Angeles, Los Angeles County, California, 90024, United States",34.0569969310345,-118.426880896552,"closed",1
"JAMINA INC","10960 WILSHIRE BLVD,LOS ANGELES,CA,90024","05/24/2013","12/31/2018","Equinox Building, 10960, Wilshire Boulevard, Westwood Village, Westwood, Los Angeles, Los Angeles County, California, 90024, United States",34.05787365,-118.445925726254,"closed",1
"RETROHASH LLC","10960 WILSHIRE BLVD,LOS ANGELES,CA,90024","12/08/2015","12/31/2018","Equinox Building, 10960, Wilshire Boulevard, Westwood Village, Westwood, Los Angeles, Los Angeles County, California, 90024, United States",34.05787365,-118.445925726254,"closed",1
"CHASIN PETS SERVICE LLC","1551 ENSLEY AVENUE,LOS ANGELES,CA,90024","12/01/2003","04/10/2018","1551, Ensley Avenue, Westwood, Los Angeles, Los Angeles County, California, 90024, United States",34.0629706778374,-118.422562212191,"closed",1
"ELECTRIC FARM LLC","10960 WILSHIRE BLVD,LOS ANGELES,CA,90024","03/12/2013","12/31/2018","Equinox Building, 10960, Wilshire Boulevard, Westwood Village, Westwood, Los Angeles, Los Angeles County, California, 90024, United States",34.05787365,-118.445925726254,"closed",1
"SHL DESIGNS LLC","1100 GLENDON AVENUE,LOS ANGELES,CA,90024","05/01/2014","12/31/2018","Westwood Center, 1100, Glendon Avenue, Westwood Village, Westwood, Los Angeles, Los Angeles County, California, 90024, United States",34.0605418,-118.443495411629,"closed",1
"Home Business","10920 WILSHIRE BLVD,LOS ANGELES,CA,90024","01/01/2014","12/31/2018","UCLA Wilshire Center, 10920, Wilshire Boulevard, Westwood Village, Westwood, Los Angeles, Los Angeles County, California, 90024, United States",34.0580985,-118.444642405786,"closed",0
"MYSTOPIA ENTERTAINMENT","10877 WILSHIRE BLVD,LOS ANGELES,CA,90024","09/17/2015","12/31/2018","10877, Wilshire Boulevard, Westwood Village, Westwood, Los Angeles, Los Angeles County, California, 90024, United States",34.05927025,-118.4423481,"closed",1
"MY D INC","1008 BROXTON AVENUE,LOS ANGELES,CA,90024","08/20/2016","12/31/2018","1008, Broxton Avenue, Westwood Village, Westwood, Los Angeles, Los Angeles County, California, 90024, United States",34.0623181979505,-118.446819485807,"closed",1
"NOVEL CAFE INC","1101 GAYLEY AVENUE,LOS ANGELES,CA,90024","06/15/2007","12/31/2018","Novel Cafe Westwood, 1101, Gayley Avenue, Westwood Village, Westwood, Los Angeles, Los Angeles County, California, 90024, United States",34.0600033,-118.4465424,"closed",1
"OKYS INC","100 UCLA MEDICAL PLAZA,LOS ANGELES,CA,90024","01/01/1999","12/31/2018","",34.06558,-118.44576,"closed",1
"PRINCIPAL SOLUTIONS GROUP INC.","1015 GAYLEY AVENUE,LOS ANGELES,CA,90024","01/14/2006","12/31/2018","Postal spot, 1015, Gayley Avenue, Westwood Village, Westwood, Los Angeles, Los Angeles County, California, 90024, United States",34.061433,-118.4480497,"closed",1
"IZUCHUKWU OKPARA MD INC","10880 WILSHIRE BLVD,LOS ANGELES,CA,90024","05/01/2014","08/01/2018","U.S. Coast Guard - Motion Picture and Television Office, 10880, Wilshire Boulevard, Westwood Village, Westwood, Los Angeles, Los Angeles County, California, 90024, United States",34.058617,-118.4432767,"closed",1
"BUYPLR INC","1361 WESTWOOD BLVD,LOS ANGELES,CA,90024","04/25/2017","12/31/2018","1361, Westwood Boulevard, Westwood Village, Westwood, Los Angeles, Los Angeles County, California, 90024, United States",34.05590725,-118.442203375,"closed",1
"TALASAZAN GALLERY INC","1391 WESTWOOD BLVD,LOS ANGELES,CA,90024","06/01/2015","12/31/2018","1391, Westwood Boulevard, Westwood Village, Westwood, Los Angeles, Los Angeles County, California, 90024, United States",34.055506,-118.4419615,"closed",1
"COMPTON & COMPANY LLC","10900 WILSHIRE BLVD,LOS ANGELES,CA,90024","01/01/2017","12/31/2018","Murdock Plaza, 10900, Wilshire Boulevard, Westwood Village, Westwood, Los Angeles, Los Angeles County, California, 90024, United States",34.05833715,-118.444065347594,"closed",1
"CLARENCE GREY INC","10501 WILSHIRE BLVD,LOS ANGELES,CA,90024","07/25/2000","12/31/2018","10501, Wilshire Boulevard, Westwood, Los Angeles, Los Angeles County, California, 90024, United States",34.064163,-118.432364,"closed",1
"DEPARTURES, LLC","10877 WILSHIRE BLVD,LOS ANGELES,CA,90024","02/01/2016","12/31/2018","10877, Wilshire Boulevard, Westwood Village, Westwood, Los Angeles, Los Angeles County, California, 90024, United States",34.05927025,-118.4423481,"closed",1
"AGENT ORANGE TELECOM INC","11000 WILSHIRE BLVD,LOS ANGELES,CA,90024","02/24/2016","12/31/2018","Federal Building, 11000, Wilshire Boulevard, Veterans Administration, Los Angeles County, California, 90024, United States",34.05637535,-118.447879599573,"closed",1
"JACKSON TOURING INC","10960 WILSHIRE BLVD,LOS ANGELES,CA,90024","06/08/2012","12/31/2018","Equinox Building, 10960, Wilshire Boulevard, Westwood Village, Westwood, Los Angeles, Los Angeles County, California, 90024, United States",34.05787365,-118.445925726254,"closed",1
"PALE FIRE ENTERPRISES INC","10960 WILSHIRE BLVD,LOS ANGELES,CA,90024","03/15/2013","12/31/2018","Equinox Building, 10960, Wilshire Boulevard, Westwood Village, Westwood, Los Angeles, Los Angeles County, California, 90024, United States",34.05787365,-118.445925726254,"closed",1
"BOYCHOIR MOVIE LLC","10866 WILSHIRE BLVD,LOS ANGELES,CA,90024","12/06/2013","12/31/2018","10866, Wilshire Boulevard, Westwood Village, Westwood, Los Angeles, Los Angeles County, California, 90024, United States",34.0591843846154,-118.442019384615,"closed",1
"ONE TOUGH COOKIE INC","10960 WILSHIRE BLVD,LOS ANGELES,CA,90024","01/01/2006","12/31/2018","Equinox Building, 10960, Wilshire Boulevard, Westwood Village, Westwood, Los Angeles, Los Angeles County, California, 90024, United States",34.05787365,-118.445925726254,"closed",1
"SEASONED CREATIONS INC","10960 WILSHIRE BLVD,LOS ANGELES,CA,90024","09/19/2013","12/31/2018","Equinox Building, 10960, Wilshire Boulevard, Westwood Village, Westwood, Los Angeles, Los Angeles County, California, 90024, United States",34.05787365,-118.445925726254,"closed",1
"S&S JONES INC","1258  DEVON AVENUE,LOS ANGELES,CA,90024","01/01/2017","01/01/2018","1258, Devon Avenue, Westwood, Los Angeles, Los Angeles County, California, 90024, United States",34.0654624114566,-118.426242314444,"closed",1
"LAZ KARP ASSOCIATES LLC","10700 WILSHIRE BLVD,LOS ANGELES,CA,90024","01/01/2017","04/01/2018","10700, Wilshire Boulevard, Westwood, Los Angeles, Los Angeles County, California, 90024, United States",34.060744,-118.435854,"closed",1
"Home Business","10390 WILSHIRE BLVD,LOS ANGELES,CA,90024","01/01/2009","12/31/2018","Wilshire Boulevard, Westwood, Los Angeles, Los Angeles County, California, 90024, United States",34.0611221,-118.4346192,"closed",0
"LAZ KARP ASSOCIATES LLC","10236 CHARING CROSS ROAD,LOS ANGELES,CA,90024","01/01/2017","02/01/2018","10236, Charing Cross Road, Westwood, Los Angeles, Los Angeles County, California, 90024, United States",34.077499974723,-118.429239320156,"closed",1
