"name","address","start","end","gcode","lat","long"
"WESTWORLD SECURITY SERVICES INC","10880 WILSHIRE BLVD,LOS ANGELES,CA,90024","08/06/2019","","U.S. Coast Guard - Motion Picture and Television Office, 10880, Wilshire Boulevard, Westwood Village, Westwood, Los Angeles, Los Angeles County, California, 90024, United States","34.058617","-118.4432767"
"TORANJ CORP","10861 LINDBROOK DRIVE,LOS ANGELES,CA,90024","10/14/2019","","10861, Lindbrook Drive, Westwood Village, Westwood, Los Angeles, Los Angeles County, California, 90024, United States","34.060130316132025","-118.4430497195888"
"GIGI C'S BIKINIS, LLC","10960 WILSHIRE BLVD,LOS ANGELES,CA,90024","07/26/2019","","Equinox Building, 10960, Wilshire Boulevard, Westwood Village, Westwood, Los Angeles, Los Angeles County, California, 90024, United States","34.05787365","-118.44592572625439"
"BUDDY PRODUCTIONS, LLC","10960 WILSHIRE BLVD,LOS ANGELES,CA,90024","01/24/2019","","Equinox Building, 10960, Wilshire Boulevard, Westwood Village, Westwood, Los Angeles, Los Angeles County, California, 90024, United States","34.05787365","-118.44592572625439"
"GENAS STORY INC","10960 WILSHIRE BLVD,LOS ANGELES,CA,90024","07/26/2019","","Equinox Building, 10960, Wilshire Boulevard, Westwood Village, Westwood, Los Angeles, Los Angeles County, California, 90024, United States","34.05787365","-118.44592572625439"
"LONE WOLF ENTERTAINMENT INC","10960 WILSHIRE BLVD,LOS ANGELES,CA,90024","09/09/2019","","Equinox Building, 10960, Wilshire Boulevard, Westwood Village, Westwood, Los Angeles, Los Angeles County, California, 90024, United States","34.05787365","-118.44592572625439"
"KAUSHANSKY PSYCHOLOGY","10850 WILSHIRE BLVD,LOS ANGELES,CA,90024","09/20/2019","","English Language Center - ELC Los Angeles, 10850, Wilshire Boulevard, Westwood Village, Westwood, Los Angeles, Los Angeles County, California, 90024, United States","34.05913165","-118.44120737686"
"DIGITAL INTERFERENCE INC","10960 WILSHIRE BLVD,LOS ANGELES,CA,90024","04/15/2019","","Equinox Building, 10960, Wilshire Boulevard, Westwood Village, Westwood, Los Angeles, Los Angeles County, California, 90024, United States","34.05787365","-118.44592572625439"
"NEW ADDRESS STUDIO INC","10877 WILSHIRE BLVD,LOS ANGELES,CA,90024","04/02/2019","","10877, Wilshire Boulevard, Westwood Village, Westwood, Los Angeles, Los Angeles County, California, 90024, United States","34.05927025","-118.4423481"
"GAYLEY GROUP INC","1101 GAYLEY AVENUE,LOS ANGELES,CA,90024","01/02/2019","","Novel Cafe Westwood, 1101, Gayley Avenue, Westwood Village, Westwood, Los Angeles, Los Angeles County, California, 90024, United States","34.0600033","-118.4465424"
"WINGS2FLY ENTERTAINMENT","10990 WILSHIRE BLVD,LOS ANGELES,CA,90024","01/01/2019","","KB Home, 10990, Wilshire Boulevard, Westwood Village, Westwood, Los Angeles, Los Angeles County, California, 90024, United States","34.0575914","-118.4471678574368"
"WESTWOOD THAI, INC","1375 WESTWOOD BLVD,LOS ANGELES,CA,90024","01/01/2019","","1375, Westwood Boulevard, Westwood Village, Westwood, Los Angeles, Los Angeles County, California, 90024, United States","34.05572","-118.4420905"
"COMMERCIALS UNLIMITED, INC","10300 WILSHIRE BLVD,LOS ANGELES,CA,90024","01/01/2019","","Beverly Hills Plaza Hotel & Spa, 10300, Wilshire Boulevard, Westwood, Los Angeles, Los Angeles County, California, 90024, United States","34.0674197","-118.4257667"
"BEVERLY PHARMACY INC","10724 WILSHIRE BLVD,LOS ANGELES,CA,90024","01/01/2019","","10724, Wilshire Boulevard, Westwood, Los Angeles, Los Angeles County, California, 90024, United States","34.060533935838116","-118.43682539137582"
"LUXELASH INC","1353 WESTWOOD BLVD,LOS ANGELES,CA,90024","03/01/2019","","1353, Westwood Boulevard, Westwood Village, Westwood, Los Angeles, Los Angeles County, California, 90024, United States","34.056014250000004","-118.442267875"
"LAW OFFICES OF HAMIDEH ROOHBAKHSH, APC","10866 WILSHIRE BLVD,LOS ANGELES,CA,90024","02/11/2019","","10866, Wilshire Boulevard, Westwood Village, Westwood, Los Angeles, Los Angeles County, California, 90024, United States","34.059184384615385","-118.44201938461538"
"BASIC CONCEPT","10450 WILSHIRE BLVD,LOS ANGELES,CA,90024","05/09/2019","","Wilshire Boulevard, Westwood, Los Angeles, Los Angeles County, California, 90024, United States","34.0611221","-118.4346192"
"MASHA FROM RUSSIA, LLC","907 WESTWOOD BLVD,LOS ANGELES,CA,90024","05/30/2019","","907, Westwood Boulevard, Westwood Village, Westwood, Los Angeles, Los Angeles County, California, 90024, United States","34.06311049496845","-118.44518150248378"
"I KARUMBA PRODUCTIONS, INC.","10990 WILSHIRE BLVD,LOS ANGELES,CA,90024","01/01/2019","","KB Home, 10990, Wilshire Boulevard, Westwood Village, Westwood, Los Angeles, Los Angeles County, California, 90024, United States","34.0575914","-118.4471678574368"
"KLKP LLC","1344 COMSTOCK AVENUE,LOS ANGELES,CA,90024","01/01/2019","08/12/2020","1344, Comstock Avenue, Westwood, Los Angeles, Los Angeles County, California, 90024, United States","34.06551693274428","-118.4251471011684"
"WILSHIRE MARGOT SPE LLC","10599 WILSHIRE BLVD,LOS ANGELES,CA,90024","03/29/2019","","10599, Wilshire Boulevard, Westwood, Los Angeles, Los Angeles County, California, 90024, United States","34.061668","-118.433632"
"FORETASTE INC","1380 VETERAN AVENUE,LOS ANGELES,CA,90024","01/01/2019","","1380, Veteran Avenue, West Los Angeles, Los Angeles, Los Angeles County, California, 90024-3990, United States","34.05443135","-118.44439834048823"
"CMNTY RCRDS, LLC","10877 WILSHIRE BLVD,LOS ANGELES,CA,90024","07/02/2019","","10877, Wilshire Boulevard, Westwood Village, Westwood, Los Angeles, Los Angeles County, California, 90024, United States","34.05927025","-118.4423481"
"VICKEN SAHAKIAN MD INC","10921 WILSHIRE BLVD,LOS ANGELES,CA,90024","02/11/2019","","Westwood Medical Plaza, 10921, Wilshire Boulevard, Westwood Village, Westwood, Los Angeles, Los Angeles County, California, 90024, United States","34.05886315","-118.44482552240149"
"STARBUCKS CORPORATION","1500 WESTWOOD BLVD,LOS ANGELES,CA,90024","09/26/2019","","1500, Westwood Boulevard, Westwood Village, Westwood, Los Angeles, Los Angeles County, California, 90024, United States","34.054034","-118.440511"
"FP4 VENTURES LLC","10866 WILSHIRE BLVD,LOS ANGELES,CA,90024","06/01/2019","","10866, Wilshire Boulevard, Westwood Village, Westwood, Los Angeles, Los Angeles County, California, 90024, United States","34.059184384615385","-118.44201938461538"
"MG PARTNERS, LLP","10940 WILSHIRE BLVD,LOS ANGELES,CA,90024","07/08/2019","","The Tower, 10940, Wilshire Boulevard, Westwood Village, Westwood, Los Angeles, Los Angeles County, California, 90024, United States","34.05804765","-118.44507727304676"
"KRETE LLC","10434 LINDBROOK DRIVE,LOS ANGELES,CA,90024","06/05/2019","","10434, Lindbrook Drive, Westwood Village, Westwood, Los Angeles, Los Angeles County, California, 90024, United States","34.06727075893975","-118.43072145991285"
"PINNIPED MANOR LLC","10990 WILSHIRE BLVD,LOS ANGELES,CA,90024","01/01/2019","","KB Home, 10990, Wilshire Boulevard, Westwood Village, Westwood, Los Angeles, Los Angeles County, California, 90024, United States","34.0575914","-118.4471678574368"
"BOFA SECURITIES INC","10877 WILSHIRE BLVD,LOS ANGELES,CA,90024","05/13/2019","","10877, Wilshire Boulevard, Westwood Village, Westwood, Los Angeles, Los Angeles County, California, 90024, United States","34.05927025","-118.4423481"
"ROBJAM DEVELOPMENTS LLC","10877 WILSHIRE BLVD,LOS ANGELES,CA,90024","02/20/2019","","10877, Wilshire Boulevard, Westwood Village, Westwood, Los Angeles, Los Angeles County, California, 90024, United States","34.05927025","-118.4423481"
"4TH & BLEEKER, INC.","10960 WILSHIRE BLVD,LOS ANGELES,CA,90024","04/02/2019","","Equinox Building, 10960, Wilshire Boulevard, Westwood Village, Westwood, Los Angeles, Los Angeles County, California, 90024, United States","34.05787365","-118.44592572625439"
"THE VERY GOOD MUSIC US LLC","10877 WILSHIRE BLVD,LOS ANGELES,CA,90024","05/23/2019","","10877, Wilshire Boulevard, Westwood Village, Westwood, Los Angeles, Los Angeles County, California, 90024, United States","34.05927025","-118.4423481"
"AMMXWAL LLC","10877 WILSHIRE BLVD,LOS ANGELES,CA,90024","09/30/2019","","10877, Wilshire Boulevard, Westwood Village, Westwood, Los Angeles, Los Angeles County, California, 90024, United States","34.05927025","-118.4423481"
"MINON GLOBAL INC","1049 GAYLEY AVENUE,LOS ANGELES,CA,90024","09/16/2019","","Thai House, 1049, Gayley Avenue, Westwood Village, Westwood, Los Angeles, Los Angeles County, California, 90024, United States","34.0610306","-118.4473883"
"PINNACLE DEVELOPMENT CORP","1520 S BEVERLY GLEN BLVD,LOS ANGELES,CA,90024","06/01/2019","","1520, South Beverly Glen Boulevard, Westwood, Los Angeles, Los Angeles County, California, 90024, United States","34.06029","-118.424987"
"LAS EQUITY, LLC","10700 WILSHIRE BLVD,LOS ANGELES,CA,90024","12/03/2019","","10700, Wilshire Boulevard, Westwood, Los Angeles, Los Angeles County, California, 90024, United States","34.060744","-118.435854"
"SICHENZIA ROSS FERENCE LLP","10866 WILSHIRE BLVD,LOS ANGELES,CA,90024","10/15/2019","","10866, Wilshire Boulevard, Westwood Village, Westwood, Los Angeles, Los Angeles County, California, 90024, United States","34.059184384615385","-118.44201938461538"
"NIMBUS GROUP","777 WESTHOLME AVENUE,LOS ANGELES,CA,90024","01/03/2019","","777, Westholme Avenue, Westwood, Los Angeles, Los Angeles County, California, 90024, United States","34.06685709827288","-118.43622555603962"
"KETAMINE HEALING CLINIC OF LOS ANGELES","1762 WESTWOOD BLVD,LOS ANGELES,CA,90024","09/11/2019","","1762, Westwood Boulevard, Westwood, Los Angeles, Los Angeles County, California, 90024, United States","34.05065342857143","-118.43759595918367"
"THREE PALM PROPERTIES LLC","1301 WESTWOOD BLVD,LOS ANGELES,CA,90024","04/17/2019","","Papa John's, 1301, Westwood Boulevard, Westwood Village, Westwood, Los Angeles, Los Angeles County, California, 90024-3990, United States","34.0568397","-118.4429448"
"CHASE NMTC MIA UNION CITY INVESTMENT FUND LLC","1281 WESTWOOD BLVD,LOS ANGELES,CA,90024","01/01/2019","","1281, Westwood Boulevard, Westwood Village, Westwood, Los Angeles, Los Angeles County, California, 90024, United States","34.05718210204082","-118.44297175510204"
"MAME JEWELRY LLC","10450 EASTBORNE AVENUE,LOS ANGELES,CA,90024","02/21/2019","","10450, Eastborne Avenue, Westwood, Los Angeles, Los Angeles County, California, 90024, United States","34.057263862068964","-118.42618079310346"
"NNMF SUB CDE XXVII LLC","1281 WESTWOOD BLVD,LOS ANGELES,CA,90024","01/01/2019","","1281, Westwood Boulevard, Westwood Village, Westwood, Los Angeles, Los Angeles County, California, 90024, United States","34.05718210204082","-118.44297175510204"
"1052 CLARK LLC","1344 COMSTOCK AVENUE,LOS ANGELES,CA,90024","01/01/2019","","1344, Comstock Avenue, Westwood, Los Angeles, Los Angeles County, California, 90024, United States","34.06551693274428","-118.4251471011684"
"BIG COMMISSION MUSIC GROUP LLC","10960 WILSHIRE BLVD,LOS ANGELES,CA,90024","03/26/2019","","Equinox Building, 10960, Wilshire Boulevard, Westwood Village, Westwood, Los Angeles, Los Angeles County, California, 90024, United States","34.05787365","-118.44592572625439"
"RESTORATION HEALTHCARE","1057 GAYLEY AVENUE,LOS ANGELES,CA,90024","08/01/2019","","1057, Gayley Avenue, Westwood Village, Westwood, Los Angeles, Los Angeles County, California, 90024, United States","34.0608602","-118.44742019946563"
"DAUGHTERS ORGANIC FOOD COMPANY","10880 WILSHIRE BLVD,LOS ANGELES,CA,90024","09/01/2019","","U.S. Coast Guard - Motion Picture and Television Office, 10880, Wilshire Boulevard, Westwood Village, Westwood, Los Angeles, Los Angeles County, California, 90024, United States","34.058617","-118.4432767"
"I LIVE OIL LLC","10960 WILSHIRE BLVD,LOS ANGELES,CA,90024","04/19/2019","","Equinox Building, 10960, Wilshire Boulevard, Westwood Village, Westwood, Los Angeles, Los Angeles County, California, 90024, United States","34.05787365","-118.44592572625439"
"SH HOUSE MANAGEMENT LLC","10960 WILSHIRE BLVD,LOS ANGELES,CA,90024","07/25/2019","","Equinox Building, 10960, Wilshire Boulevard, Westwood Village, Westwood, Los Angeles, Los Angeles County, California, 90024, United States","34.05787365","-118.44592572625439"
"JAMIE RIVER LLC","10877 WILSHIRE BLVD,LOS ANGELES,CA,90024","07/15/2019","","10877, Wilshire Boulevard, Westwood Village, Westwood, Los Angeles, Los Angeles County, California, 90024, United States","34.05927025","-118.4423481"
"PROJECT GIRL PRODUCTIONS LLC","1374 S BEVERLY GLEN BLVD,LOS ANGELES,CA,90024","03/14/2019","","1374, South Beverly Glen Boulevard, Westwood, Los Angeles, Los Angeles County, California, 90024, United States","34.062813775870474","-118.42625856607629"
"ZACH OF ALL TRADES","10960 WILSHIRE BLVD,LOS ANGELES,CA,90024","06/27/2019","","Equinox Building, 10960, Wilshire Boulevard, Westwood Village, Westwood, Los Angeles, Los Angeles County, California, 90024, United States","34.05787365","-118.44592572625439"
"LIGHT BEARER PRODUCTIONS LLC","10960 WILSHIRE BLVD,LOS ANGELES,CA,90024","07/01/2019","","Equinox Building, 10960, Wilshire Boulevard, Westwood Village, Westwood, Los Angeles, Los Angeles County, California, 90024, United States","34.05787365","-118.44592572625439"
"SGM ENGINEERING, INC","10880 WILSHIRE BLVD,LOS ANGELES,CA,90024","07/01/2019","","U.S. Coast Guard - Motion Picture and Television Office, 10880, Wilshire Boulevard, Westwood Village, Westwood, Los Angeles, Los Angeles County, California, 90024, United States","34.058617","-118.4432767"
"EXPLORE FOX LIMITED LIABILITY COMPANY","10880 WILSHIRE BLVD,LOS ANGELES,CA,90024","01/01/2019","","U.S. Coast Guard - Motion Picture and Television Office, 10880, Wilshire Boulevard, Westwood Village, Westwood, Los Angeles, Los Angeles County, California, 90024, United States","34.058617","-118.4432767"
"PRIVILGD, LLC","10940 WILSHIRE BLVD,LOS ANGELES,CA,90024","10/28/2019","","The Tower, 10940, Wilshire Boulevard, Westwood Village, Westwood, Los Angeles, Los Angeles County, California, 90024, United States","34.05804765","-118.44507727304676"
"WORKTAPS INC","10586 HOLMAN AVENUE,LOS ANGELES,CA,90024","01/01/2019","","10586, Holman Avenue, Westwood, Los Angeles, Los Angeles County, California, 90024, United States","34.05564125","-118.430201"
"ART NAIL BOUTIQUE INC","1267 WESTWOOD BLVD,LOS ANGELES,CA,90024","09/19/2019","","1267, Westwood Boulevard, Westwood Village, Westwood, Los Angeles, Los Angeles County, California, 90024, United States","34.05726695918368","-118.44302289795918"
"LA BODEGA 18 LLC","1101 WESTWOOD BLVD,LOS ANGELES,CA,90024","10/01/2019","","Village Center Newsstand, 1101, Westwood Boulevard, Westwood Village, Westwood, Los Angeles, Los Angeles County, California, 90024, United States","34.0604938","-118.4457612"
"VALLEY CENTER HEARING CLINIC, INC.","1700 WESTWOOD BLVD,LOS ANGELES,CA,90024","03/25/2019","08/01/2019","1700, Westwood Boulevard, Westwood, Los Angeles, Los Angeles County, California, 90024, United States","34.051796","-118.438581"
"BMNT VAPOR CO","1311 WESTWOOD BLVD,LOS ANGELES,CA,90024","09/11/2019","","1311, Westwood Boulevard, Westwood Village, Westwood, Los Angeles, Los Angeles County, California, 90024, United States","34.056728875","-118.44269883333334"
"PARALLELS, LLC","907 WESTWOOD BLVD,LOS ANGELES,CA,90024","08/08/2019","","907, Westwood Boulevard, Westwood Village, Westwood, Los Angeles, Los Angeles County, California, 90024, United States","34.06311049496845","-118.44518150248378"
"RAVI S RAJAN","10531 EDGELEY PLACE,LOS ANGELES,CA,90024","09/05/2019","","10531, Edgeley Place, Westwood, Los Angeles, Los Angeles County, California, 90024, United States","34.06950404081633","-118.43664620408164"
"ANTHONY HADLEY JR","1061 GAYLEY AVENUE,LOS ANGELES,CA,90024","08/08/2019","","1061, Gayley Avenue, Westwood Village, Westwood, Los Angeles, Los Angeles County, California, 90024, United States","34.060871367346934","-118.44715916326531"
"SABLE VALLEY, LLC","10960 WILSHIRE BLVD,LOS ANGELES,CA,90024","01/01/2019","","Equinox Building, 10960, Wilshire Boulevard, Westwood Village, Westwood, Los Angeles, Los Angeles County, California, 90024, United States","34.05787365","-118.44592572625439"
"SMAC PRODUCTIONS INC","10960 WILSHIRE BLVD,LOS ANGELES,CA,90024","06/01/2019","","Equinox Building, 10960, Wilshire Boulevard, Westwood Village, Westwood, Los Angeles, Los Angeles County, California, 90024, United States","34.05787365","-118.44592572625439"
"TOUCH OF AEGEAN INC","1510 WESTWOOD BLVD,LOS ANGELES,CA,90024","07/24/2019","","1510, Westwood Boulevard, Westwood Village, Westwood, Los Angeles, Los Angeles County, California, 90024, United States","34.05393144897959","-118.44042253061225"
"RISING SUN TOURS INC","10960 WILSHIRE BLVD,LOS ANGELES,CA,90024","09/18/2019","","Equinox Building, 10960, Wilshire Boulevard, Westwood Village, Westwood, Los Angeles, Los Angeles County, California, 90024, United States","34.05787365","-118.44592572625439"
"YOUNG WELLNESS INC","1561 WESTWOOD BLVD,LOS ANGELES,CA,90024","11/01/2019","","1561, Westwood Boulevard, Westwood Village, Westwood, Los Angeles, Los Angeles County, California, 90024, United States","34.05305123529412","-118.439907"
"NNMF SUB-CDE XXXVI LLC","1281 WESTWOOD BLVD,LOS ANGELES,CA,90024","12/11/2019","","1281, Westwood Boulevard, Westwood Village, Westwood, Los Angeles, Los Angeles County, California, 90024, United States","34.05718210204082","-118.44297175510204"
"STORMY GAIL INC","10960 WILSHIRE BLVD,LOS ANGELES,CA,90024","07/26/2019","","Equinox Building, 10960, Wilshire Boulevard, Westwood Village, Westwood, Los Angeles, Los Angeles County, California, 90024, United States","34.05787365","-118.44592572625439"
"ISS HOLDINGS LLC","10481 KINNARD AVENUE,LOS ANGELES,CA,90024","01/31/2019","","10481, Kinnard Avenue, Westwood, Los Angeles, Los Angeles County, California, 90024, United States","34.05863787755102","-118.42781242857143"
"LIGHT DESIDERIO, INC.","10990 WILSHIRE BLVD,LOS ANGELES,CA,90024","01/01/2019","","KB Home, 10990, Wilshire Boulevard, Westwood Village, Westwood, Los Angeles, Los Angeles County, California, 90024, United States","34.0575914","-118.4471678574368"
"WABI SABI WORLDWIDE, LLC","10960 WILSHIRE BLVD,LOS ANGELES,CA,90024","08/12/2019","","Equinox Building, 10960, Wilshire Boulevard, Westwood Village, Westwood, Los Angeles, Los Angeles County, California, 90024, United States","34.05787365","-118.44592572625439"
"COWPER LAW PC","10880 WILSHIRE BLVD,LOS ANGELES,CA,90024","07/15/2019","","U.S. Coast Guard - Motion Picture and Television Office, 10880, Wilshire Boulevard, Westwood Village, Westwood, Los Angeles, Los Angeles County, California, 90024, United States","34.058617","-118.4432767"
"ISABELLA APPLE LEE","907 WESTWOOD BLVD,LOS ANGELES,CA,90024","11/06/2019","","907, Westwood Boulevard, Westwood Village, Westwood, Los Angeles, Los Angeles County, California, 90024, United States","34.06311049496845","-118.44518150248378"
"JOINT AND BONE LLC","1708 ENSLEY AVENUE,LOS ANGELES,CA,90024","05/10/2019","","1708, Ensley Avenue, Westwood, Los Angeles, Los Angeles County, California, 90024, United States","34.06147204081633","-118.42134546938775"
"ID10T, LLC","10990 WILSHIRE BLVD,LOS ANGELES,CA,90024","01/01/2019","","KB Home, 10990, Wilshire Boulevard, Westwood Village, Westwood, Los Angeles, Los Angeles County, California, 90024, United States","34.0575914","-118.4471678574368"
"OUTLINEDEPOT INC.","10940 WILSHIRE BLVD,LOS ANGELES,CA,90024","12/01/2019","","The Tower, 10940, Wilshire Boulevard, Westwood Village, Westwood, Los Angeles, Los Angeles County, California, 90024, United States","34.05804765","-118.44507727304676"
"PTM IMAGES, LLC","10990 WILSHIRE BLVD,LOS ANGELES,CA,90024","11/01/2019","","KB Home, 10990, Wilshire Boulevard, Westwood Village, Westwood, Los Angeles, Los Angeles County, California, 90024, United States","34.0575914","-118.4471678574368"
"NICO RICO CREATIVE INC","10600 OHIO AVENUE,LOS ANGELES,CA,90024","05/01/2019","","10600, Ohio Avenue, Westwood, Los Angeles, Los Angeles County, California, 90024, United States","34.057716","-118.432161"
"ADDICTION RECOVERY PLACE INC","1700 WESTWOOD BLVD,LOS ANGELES,CA,90024","10/01/2019","","1700, Westwood Boulevard, Westwood, Los Angeles, Los Angeles County, California, 90024, United States","34.051796","-118.438581"
"RICE RISE INC.","1010 BROXTON AVENUE,LOS ANGELES,CA,90024","10/12/2019","","1010, Broxton Avenue, Westwood Village, Westwood, Los Angeles, Los Angeles County, California, 90024, United States","34.062286482440534","-118.4467926527889"
"CALIFORNIA HEARING CENTER","1700 WESTWOOD BLVD,LOS ANGELES,CA,90024","09/01/2019","","1700, Westwood Boulevard, Westwood, Los Angeles, Los Angeles County, California, 90024, United States","34.051796","-118.438581"
"ZIAD MAHMOUD ZEITOUN","10966 LE CONTE AVENUE,LOS ANGELES,CA,90024","01/01/2019","06/01/2019","10966, Le Conte Avenue, Westwood Village, Westwood, Los Angeles, Los Angeles County, California, 90024, United States","34.063564","-118.447635"
"ABK INTERNATIONAL LLC","10390 WILSHIRE BLVD,LOS ANGELES,CA,90024","01/01/2019","","Wilshire Boulevard, Westwood, Los Angeles, Los Angeles County, California, 90024, United States","34.0611221","-118.4346192"
"WWRHD INC","10960 WILSHIRE BLVD,LOS ANGELES,CA,90024","11/03/2019","","Equinox Building, 10960, Wilshire Boulevard, Westwood Village, Westwood, Los Angeles, Los Angeles County, California, 90024, United States","34.05787365","-118.44592572625439"
"ZERODAY LLC","10877 WILSHIRE BLVD,LOS ANGELES,CA,90024","11/21/2019","","10877, Wilshire Boulevard, Westwood Village, Westwood, Los Angeles, Los Angeles County, California, 90024, United States","34.05927025","-118.4423481"
"WILLIAM B FITZGERALD","10520 WILSHIRE BLVD,LOS ANGELES,CA,90024","07/01/2019","","10520, Wilshire Boulevard, Westwood, Los Angeles, Los Angeles County, California, 90024, United States","34.06359820689655","-118.43237396551724"
"HUMAN BY DEFAULT LLC","10877 WILSHIRE BLVD,LOS ANGELES,CA,90024","10/23/2019","10/30/2019","10877, Wilshire Boulevard, Westwood Village, Westwood, Los Angeles, Los Angeles County, California, 90024, United States","34.05927025","-118.4423481"
"ABM INDUSTRY GROUPS, LLC","1060 GLENDON AVENUE,LOS ANGELES,CA,90024","06/07/2019","","Glendon Avenue, Westwood Village, Westwood, Los Angeles, Los Angeles County, California, 90024, United States","34.0622139","-118.4441672"
"LILOO, INC","10866 WILSHIRE BLVD,LOS ANGELES,CA,90024","11/15/2019","","10866, Wilshire Boulevard, Westwood Village, Westwood, Los Angeles, Los Angeles County, California, 90024, United States","34.059184384615385","-118.44201938461538"
"REDBULL INVESTMENT INC","10912 LE CONTE AVENUE,LOS ANGELES,CA,90024","11/21/2019","","10912, Le Conte Avenue, Westwood Village, Westwood, Los Angeles, Los Angeles County, California, 90024, United States","34.0635865","-118.4458425"
"SUPPORTIVE CARE GROUP INC","1700 WESTWOOD BLVD,LOS ANGELES,CA,90024","10/01/2019","","1700, Westwood Boulevard, Westwood, Los Angeles, Los Angeles County, California, 90024, United States","34.051796","-118.438581"
"ELECTRIC POST INC","10880 WILSHIRE BLVD,LOS ANGELES,CA,90024","01/01/2019","","U.S. Coast Guard - Motion Picture and Television Office, 10880, Wilshire Boulevard, Westwood Village, Westwood, Los Angeles, Los Angeles County, California, 90024, United States","34.058617","-118.4432767"
"FIRST KIM COMPANY","900 WESTWOOD BLVD,LOS ANGELES,CA,90024","02/22/2019","","Chick-fil-A, 900, Westwood Boulevard, Westwood Village, Westwood, Los Angeles, Los Angeles County, California, 90024, United States","34.0635256","-118.4451155"
"LATTICE MANAGEMENT, INC.","10866 WILSHIRE BLVD,LOS ANGELES,CA,90024","01/14/2019","","10866, Wilshire Boulevard, Westwood Village, Westwood, Los Angeles, Los Angeles County, California, 90024, United States","34.059184384615385","-118.44201938461538"
"BUDA DESIGN INTERNATIONAL INC","10510 WELLWORTH AVENUE,LOS ANGELES,CA,90024","03/01/2019","","10510, Wellworth Avenue, Westwood Village, Westwood, Los Angeles, Los Angeles County, California, 90024, United States","34.0612570223708","-118.43071815515243"
"KENDALL FROZEN FRUITS INC","10800 WILSHIRE BLVD,LOS ANGELES,CA,90024","01/01/2019","05/01/2019","10800, Wilshire Boulevard, Westwood Village, Westwood, Los Angeles, Los Angeles County, California, 90024, United States","34.059764","-118.439838"
"UNIVERSITY TOUR FYG LLC","10960 WILSHIRE BLVD,LOS ANGELES,CA,90024","03/26/2019","","Equinox Building, 10960, Wilshire Boulevard, Westwood Village, Westwood, Los Angeles, Los Angeles County, California, 90024, United States","34.05787365","-118.44592572625439"
"GLASER PROPERTY MANAGEMENT INC.","10940 WILSHIRE BLVD,LOS ANGELES,CA,90024","08/15/2019","","The Tower, 10940, Wilshire Boulevard, Westwood Village, Westwood, Los Angeles, Los Angeles County, California, 90024, United States","34.05804765","-118.44507727304676"
"LOST IN THE WORLD","1073 GLENDON AVENUE,LOS ANGELES,CA,90024","01/16/2019","","1073, Glendon Avenue, Westwood Village, Westwood, Los Angeles, Los Angeles County, California, 90024, United States","34.061319326530615","-118.44442077551021"
"GRAZER OTHER HOLDINGS INC","10960 WILSHIRE BLVD,LOS ANGELES,CA,90024","01/01/2019","","Equinox Building, 10960, Wilshire Boulevard, Westwood Village, Westwood, Los Angeles, Los Angeles County, California, 90024, United States","34.05787365","-118.44592572625439"
"PROJECT DREAMS ENTERTAINMENT LLC","10960 WILSHIRE BLVD,LOS ANGELES,CA,90024","07/25/2019","","Equinox Building, 10960, Wilshire Boulevard, Westwood Village, Westwood, Los Angeles, Los Angeles County, California, 90024, United States","34.05787365","-118.44592572625439"
"AUDIO VISUAL SERVICES GROUP LLC","10740 WILSHIRE BLVD,LOS ANGELES,CA,90024","01/01/2019","","10740, Wilshire Boulevard, Westwood, Los Angeles, Los Angeles County, California, 90024, United States","34.06039155334238","-118.4374724279925"
"RISING SUN PRODUCTIONS LLC","10960 WILSHIRE BLVD,LOS ANGELES,CA,90024","02/01/2019","","Equinox Building, 10960, Wilshire Boulevard, Westwood Village, Westwood, Los Angeles, Los Angeles County, California, 90024, United States","34.05787365","-118.44592572625439"
"FAT STEVE S TOURING COMPANY LLC","10960 WILSHIRE BLVD,LOS ANGELES,CA,90024","10/30/2019","","Equinox Building, 10960, Wilshire Boulevard, Westwood Village, Westwood, Los Angeles, Los Angeles County, California, 90024, United States","34.05787365","-118.44592572625439"
"FUNKY COLD MEDINA LLC","1512 WESTWOOD BLVD,LOS ANGELES,CA,90024","06/10/2019","","1512, Westwood Boulevard, Westwood Village, Westwood, Los Angeles, Los Angeles County, California, 90024, United States","34.05391093877551","-118.4404048367347"
"ABCANXIETY INC","10850 WILSHIRE BLVD,LOS ANGELES,CA,90024","10/01/2019","","English Language Center - ELC Los Angeles, 10850, Wilshire Boulevard, Westwood Village, Westwood, Los Angeles, Los Angeles County, California, 90024, United States","34.05913165","-118.44120737686"
"UNTITLED CORPORATION PROJECT INC","1620 GLENDON AVENUE,LOS ANGELES,CA,90024","10/24/2019","","1620, Glendon Avenue, Westwood, Los Angeles, Los Angeles County, California, 90024, United States","34.05284497959184","-118.43810357142857"
"CLARE PROPERTIES, LLC","10940 WILSHIRE BLVD,LOS ANGELES,CA,90024","07/01/2019","","The Tower, 10940, Wilshire Boulevard, Westwood Village, Westwood, Los Angeles, Los Angeles County, California, 90024, United States","34.05804765","-118.44507727304676"
"1051 UNION STREET LLC","10877 WILSHIRE BLVD,LOS ANGELES,CA,90024","06/25/2019","","10877, Wilshire Boulevard, Westwood Village, Westwood, Los Angeles, Los Angeles County, California, 90024, United States","34.05927025","-118.4423481"
"CARNEGIE BUSINESS SOLUTIONS LLC","10880 WILSHIRE BLVD,LOS ANGELES,CA,90024","06/03/2019","10/23/2019","U.S. Coast Guard - Motion Picture and Television Office, 10880, Wilshire Boulevard, Westwood Village, Westwood, Los Angeles, Los Angeles County, California, 90024, United States","34.058617","-118.4432767"
"ABE GURMAN CO-TRUSTEE","10512 EASTBORNE AVENUE,LOS ANGELES,CA,90024","06/18/2019","","10512, Eastborne Avenue, Westwood, Los Angeles, Los Angeles County, California, 90024, United States","34.05607375","-118.42791274999999"
"GOLDEN REGAL LLC","10960 WILSHIRE BLVD,LOS ANGELES,CA,90024","05/08/2019","","Equinox Building, 10960, Wilshire Boulevard, Westwood Village, Westwood, Los Angeles, Los Angeles County, California, 90024, United States","34.05787365","-118.44592572625439"
"ALTMAN, GREENFIELD, & SELVAGGI, LLC","10960 WILSHIRE BLVD,LOS ANGELES,CA,90024","01/01/2019","","Equinox Building, 10960, Wilshire Boulevard, Westwood Village, Westwood, Los Angeles, Los Angeles County, California, 90024, United States","34.05787365","-118.44592572625439"
"WESTWOOD GARDENS, LLC","1129 GLENDON AVENUE,LOS ANGELES,CA,90024","07/01/2019","","1129, Glendon Avenue, Westwood Village, Westwood, Los Angeles, Los Angeles County, California, 90024, United States","34.060439714285714","-118.444208"
"MANINIK PRODUCTIONS INC","10960 WILSHIRE BLVD,LOS ANGELES,CA,90024","11/01/2019","","Equinox Building, 10960, Wilshire Boulevard, Westwood Village, Westwood, Los Angeles, Los Angeles County, California, 90024, United States","34.05787365","-118.44592572625439"
"SDS SHF MANAGEMENT, LLC","1281 WESTWOOD BLVD,LOS ANGELES,CA,90024","12/23/2019","","1281, Westwood Boulevard, Westwood Village, Westwood, Los Angeles, Los Angeles County, California, 90024, United States","34.05718210204082","-118.44297175510204"
"MICKEY P MANAGEMENT LLC","10960 WILSHIRE BLVD,LOS ANGELES,CA,90024","10/30/2019","","Equinox Building, 10960, Wilshire Boulevard, Westwood Village, Westwood, Los Angeles, Los Angeles County, California, 90024, United States","34.05787365","-118.44592572625439"
"LAKEROSE PROPERTIES, LTD.","10940 WILSHIRE BLVD,LOS ANGELES,CA,90024","07/01/2019","","The Tower, 10940, Wilshire Boulevard, Westwood Village, Westwood, Los Angeles, Los Angeles County, California, 90024, United States","34.05804765","-118.44507727304676"
"AMERICAL MANAGEMENT COMPANY, INC.","10940 WILSHIRE BLVD,LOS ANGELES,CA,90024","07/01/2019","","The Tower, 10940, Wilshire Boulevard, Westwood Village, Westwood, Los Angeles, Los Angeles County, California, 90024, United States","34.05804765","-118.44507727304676"
"ST JOHNS WOODS ASSOCIATES, LTD","10940 WILSHIRE BLVD,LOS ANGELES,CA,90024","07/01/2019","","The Tower, 10940, Wilshire Boulevard, Westwood Village, Westwood, Los Angeles, Los Angeles County, California, 90024, United States","34.05804765","-118.44507727304676"
"DENSLOW, LLC","10940 WILSHIRE BLVD,LOS ANGELES,CA,90024","07/01/2019","","The Tower, 10940, Wilshire Boulevard, Westwood Village, Westwood, Los Angeles, Los Angeles County, California, 90024, United States","34.05804765","-118.44507727304676"
"PALM TREE PLAZA LLC","10940 WILSHIRE BLVD,LOS ANGELES,CA,90024","07/01/2019","","The Tower, 10940, Wilshire Boulevard, Westwood Village, Westwood, Los Angeles, Los Angeles County, California, 90024, United States","34.05804765","-118.44507727304676"
"SOULITO'S WAY","10960 WILSHIRE BLVD,LOS ANGELES,CA,90024","04/01/2019","","Equinox Building, 10960, Wilshire Boulevard, Westwood Village, Westwood, Los Angeles, Los Angeles County, California, 90024, United States","34.05787365","-118.44592572625439"
"BIGHEAD LITTLEHEAD BERNIEHEAD INC","10960 WILSHIRE BLVD,LOS ANGELES,CA,90024","11/01/2019","","Equinox Building, 10960, Wilshire Boulevard, Westwood Village, Westwood, Los Angeles, Los Angeles County, California, 90024, United States","34.05787365","-118.44592572625439"
"ANDERSON PAAK EMPIRE INC","10960 WILSHIRE BLVD,LOS ANGELES,CA,90024","03/01/2019","","Equinox Building, 10960, Wilshire Boulevard, Westwood Village, Westwood, Los Angeles, Los Angeles County, California, 90024, United States","34.05787365","-118.44592572625439"
"LECHIK, LLC","10990 WILSHIRE BLVD,LOS ANGELES,CA,90024","12/24/2019","","KB Home, 10990, Wilshire Boulevard, Westwood Village, Westwood, Los Angeles, Los Angeles County, California, 90024, United States","34.0575914","-118.4471678574368"
"CAMDEN GROUP, LTD.","10940 WILSHIRE BLVD,LOS ANGELES,CA,90024","07/01/2019","","The Tower, 10940, Wilshire Boulevard, Westwood Village, Westwood, Los Angeles, Los Angeles County, California, 90024, United States","34.05804765","-118.44507727304676"
"MARISSA LEE, LCSW","1315 WESTWOOD BLVD,LOS ANGELES,CA,90024","04/03/2019","","1315, Westwood Boulevard, Westwood Village, Westwood, Los Angeles, Los Angeles County, California, 90024, United States","34.056679625","-118.44266916666668"
"SC REGIONAL MEDICAL GROUP, INC.","10921 WILSHIRE BLVD,LOS ANGELES,CA,90024","07/01/2019","","Westwood Medical Plaza, 10921, Wilshire Boulevard, Westwood Village, Westwood, Los Angeles, Los Angeles County, California, 90024, United States","34.05886315","-118.44482552240149"
"REGENTS OF THE UNIVERSITY OF CALIFORNIA AT LOS ANGELES","1101 GAYLEY AVENUE,LOS ANGELES,CA,90024","09/27/2019","","Novel Cafe Westwood, 1101, Gayley Avenue, Westwood Village, Westwood, Los Angeles, Los Angeles County, California, 90024, United States","34.0600033","-118.4465424"
"SATOSHI LLC","10434 LINDBROOK DRIVE,LOS ANGELES,CA,90024","01/23/2019","12/27/2019","10434, Lindbrook Drive, Westwood Village, Westwood, Los Angeles, Los Angeles County, California, 90024, United States","34.06727075893975","-118.43072145991285"
"TIPTREE LLC","907 WESTWOOD BLVD,LOS ANGELES,CA,90024","09/01/2019","04/27/2020","907, Westwood Boulevard, Westwood Village, Westwood, Los Angeles, Los Angeles County, California, 90024, United States","34.06311049496845","-118.44518150248378"
"10111 NORMANDIE INVESTMENTS LLC","1717 MALCOLM AVENUE,LOS ANGELES,CA,90024","06/28/2019","","1717, Malcolm Avenue, West Los Angeles, Los Angeles, Los Angeles County, California, 90024-3990, United States","34.05138255","-118.43623564776804"
"LA BREA GARDENS, LTD.","10940 WILSHIRE BLVD,LOS ANGELES,CA,90024","07/01/2019","","The Tower, 10940, Wilshire Boulevard, Westwood Village, Westwood, Los Angeles, Los Angeles County, California, 90024, United States","34.05804765","-118.44507727304676"
"GENESIS THERAPEUTICS INC","10580 WILSHIRE BLVD,LOS ANGELES,CA,90024","11/16/2019","","10580, Wilshire Boulevard, Westwood, Los Angeles, Los Angeles County, California, 90024, United States","34.061800661771585","-118.43304868372775"
"JASON3MEDIA GROUP INC","10850 WILSHIRE BLVD,LOS ANGELES,CA,90024","01/01/2019","","English Language Center - ELC Los Angeles, 10850, Wilshire Boulevard, Westwood Village, Westwood, Los Angeles, Los Angeles County, California, 90024, United States","34.05913165","-118.44120737686"
"JACOB ARI DAVIDSON","320 COMSTOCK AVENUE,LOS ANGELES,CA,90024","08/01/2019","","320, Comstock Avenue, Westwood, Los Angeles, Los Angeles County, California, 90024, United States","34.07611603190652","-118.43672528849599"
"GMT PARTNERS LLC","10877 WILSHIRE BLVD,LOS ANGELES,CA,90024","08/13/2019","","10877, Wilshire Boulevard, Westwood Village, Westwood, Los Angeles, Los Angeles County, California, 90024, United States","34.05927025","-118.4423481"
"RT HOLLYWOOD LLC","660 VETERAN AVENUE,LOS ANGELES,CA,90024","05/17/2019","","660, Veteran Avenue, Westwood Village, Westwood, Los Angeles, Los Angeles County, California, 90024, United States","34.065024295942095","-118.45388813043698"
"JMJ GENERAL CONTRACTOR LLC","1426 MIDVALE AVENUE,LOS ANGELES,CA,90024","10/20/2019","","1422, 1424,1426, 1426 1/2, 1428, Midvale Avenue, West Los Angeles, Los Angeles, Los Angeles County, California, 90024-3990, United States","34.0544149","-118.44186048287082"
"LA PRIVE INC","1441 VETERAN AVENUE,LOS ANGELES,CA,90024","04/15/2019","","1441, Veteran Avenue, Westwood, Los Angeles, Los Angeles County, California, 90024, United States","34.053045061224495","-118.44380622448979"
"ARAGON PHARMACEUTICALS INC","10990 WILSHIRE BLVD,LOS ANGELES,CA,90024","02/27/2019","","KB Home, 10990, Wilshire Boulevard, Westwood Village, Westwood, Los Angeles, Los Angeles County, California, 90024, United States","34.0575914","-118.4471678574368"
"RSN19 CONSULTING LLC","10328 WILKINS AVENUE,LOS ANGELES,CA,90024","02/03/2019","","10328, Wilkins Avenue, Westwood, Los Angeles, Los Angeles County, California, 90024, United States","34.06144497297297","-118.4244387027027"
"LONDONBOUND LLC","10877 WILSHIRE BLVD,LOS ANGELES,CA,90024","11/21/2019","","10877, Wilshire Boulevard, Westwood Village, Westwood, Los Angeles, Los Angeles County, California, 90024, United States","34.05927025","-118.4423481"
"DUANE WETHERLY INC","10960 WILSHIRE BLVD,LOS ANGELES,CA,90024","11/01/2019","","Equinox Building, 10960, Wilshire Boulevard, Westwood Village, Westwood, Los Angeles, Los Angeles County, California, 90024, United States","34.05787365","-118.44592572625439"
"1600 VENICE LLC","10880 WILSHIRE BLVD,LOS ANGELES,CA,90024","01/01/2019","09/30/2019","U.S. Coast Guard - Motion Picture and Television Office, 10880, Wilshire Boulevard, Westwood Village, Westwood, Los Angeles, Los Angeles County, California, 90024, United States","34.058617","-118.4432767"
"KLRM LLC","10660 WILSHIRE BLVD,LOS ANGELES,CA,90024","01/01/2019","","10660, Wilshire Boulevard, Westwood, Los Angeles, Los Angeles County, California, 90024, United States","34.06096043628057","-118.43484492151715"
"PARVANEH NAMIRI KALANTARI","10716 ROCHESTER AVENUE,LOS ANGELES,CA,90024","06/01/2019","","10716, Rochester Avenue, Westwood, Los Angeles, Los Angeles County, California, 90024, United States","34.05781433333333","-118.43571166666666"
"CHASE NMTC SALB INVESTMENT FUND LLC","1281 WESTWOOD BLVD,LOS ANGELES,CA,90024","01/01/2019","12/31/2019","1281, Westwood Boulevard, Westwood Village, Westwood, Los Angeles, Los Angeles County, California, 90024, United States","34.05718210204082","-118.44297175510204"
"JAY NAGDIMON PHD","1081 WESTWOOD BLVD,LOS ANGELES,CA,90024","06/03/2019","12/31/2019","1081, Westwood Boulevard, Westwood Village, Westwood, Los Angeles, Los Angeles County, California, 90024, United States","34.061176275510206","-118.44522148979593"
"EJM REALTY GROUP INC","1100 GLENDON AVENUE,LOS ANGELES,CA,90024","01/01/2019","","Westwood Center, 1100, Glendon Avenue, Westwood Village, Westwood, Los Angeles, Los Angeles County, California, 90024, United States","34.060541799999996","-118.44349541162904"
"NNMF SUB-CDE XXXI LLC","1281 WESTWOOD BLVD,LOS ANGELES,CA,90024","01/01/2019","","1281, Westwood Boulevard, Westwood Village, Westwood, Los Angeles, Los Angeles County, California, 90024, United States","34.05718210204082","-118.44297175510204"
"PROJECT DREAMS TOURING LLC","10960 WILSHIRE BLVD,LOS ANGELES,CA,90024","07/25/2019","","Equinox Building, 10960, Wilshire Boulevard, Westwood Village, Westwood, Los Angeles, Los Angeles County, California, 90024, United States","34.05787365","-118.44592572625439"
"NOT THAT COSBY INC","10557 WYTON DRIVE,LOS ANGELES,CA,90024","06/14/2019","","10557, Wyton Drive, Westwood, Los Angeles, Los Angeles County, California, 90024, United States","34.07382382340231","-118.43651240616263"
"625 MIDVALE AVENUE LLC","625 MIDVALE AVENUE,LOS ANGELES,CA,90024","01/01/2019","","625, Midvale Avenue, Westwood Village, Westwood, Los Angeles, Los Angeles County, California, 90024, United States","34.06583722140645","-118.45186393134907"
"MOUNTAINS ARE CALLING LLC","10960 WILSHIRE BLVD,LOS ANGELES,CA,90024","01/01/2019","","Equinox Building, 10960, Wilshire Boulevard, Westwood Village, Westwood, Los Angeles, Los Angeles County, California, 90024, United States","34.05787365","-118.44592572625439"
"SDS SHF SPONSOR INVESTOR, LLC","1281 WESTWOOD BLVD,LOS ANGELES,CA,90024","12/23/2019","","1281, Westwood Boulevard, Westwood Village, Westwood, Los Angeles, Los Angeles County, California, 90024, United States","34.05718210204082","-118.44297175510204"
"BSTV LLC","10850 WILSHIRE BLVD,LOS ANGELES,CA,90024","02/26/2019","","English Language Center - ELC Los Angeles, 10850, Wilshire Boulevard, Westwood Village, Westwood, Los Angeles, Los Angeles County, California, 90024, United States","34.05913165","-118.44120737686"
"NNMF SUB-CDE XVI LLC","1281 WESTWOOD BLVD,LOS ANGELES,CA,90024","01/01/2019","12/31/2019","1281, Westwood Boulevard, Westwood Village, Westwood, Los Angeles, Los Angeles County, California, 90024, United States","34.05718210204082","-118.44297175510204"
"CLEAN ENERGY","11075 KINROSS,LOS ANGELES,CA,90024","01/01/2019","","","find","find"
"CHRISTOPHER RIZZA APC","10940 WILSHIRE BLVD,LOS ANGELES,CA,90024","04/01/2019","","The Tower, 10940, Wilshire Boulevard, Westwood Village, Westwood, Los Angeles, Los Angeles County, California, 90024, United States","34.05804765","-118.44507727304676"
"THE CURIOSITY COMPANY LLC","10960 WILSHIRE BLVD,LOS ANGELES,CA,90024","01/01/2019","","Equinox Building, 10960, Wilshire Boulevard, Westwood Village, Westwood, Los Angeles, Los Angeles County, California, 90024, United States","34.05787365","-118.44592572625439"
"CHASE NMTC DREAM CENTER INVEST FUND LLC","1281 WESTWOOD BLVD,LOS ANGELES,CA,90024","01/01/2019","12/31/2019","1281, Westwood Boulevard, Westwood Village, Westwood, Los Angeles, Los Angeles County, California, 90024, United States","34.05718210204082","-118.44297175510204"
"ALTERCALL, LLC","10866 WILSHIRE BLVD,LOS ANGELES,CA,90024","10/16/2019","","10866, Wilshire Boulevard, Westwood Village, Westwood, Los Angeles, Los Angeles County, California, 90024, United States","34.059184384615385","-118.44201938461538"
"NNMF SUB-CDE XXXII LLC","1281 WESTWOOD BLVD,LOS ANGELES,CA,90024","01/01/2019","","1281, Westwood Boulevard, Westwood Village, Westwood, Los Angeles, Los Angeles County, California, 90024, United States","34.05718210204082","-118.44297175510204"
"CONNECTIUM INC","10510 WELLWORTH AVENUE,LOS ANGELES,CA,90024","01/01/2019","","10510, Wellworth Avenue, Westwood Village, Westwood, Los Angeles, Los Angeles County, California, 90024, United States","34.0612570223708","-118.43071815515243"
"OCEANS FINANCIAL SERVICES INC","1432 CRESTVIEW COURT,LOS ANGELES,CA,90024","11/08/2019","","1432, Crestview Court, Westwood, Los Angeles, Los Angeles County, California, 90024, United States","34.06201710204082","-118.42466977551021"
"RGC COFFEE USA INC","10866 WILSHIRE BLVD,LOS ANGELES,CA,90024","10/09/2019","","10866, Wilshire Boulevard, Westwood Village, Westwood, Los Angeles, Los Angeles County, California, 90024, United States","34.059184384615385","-118.44201938461538"
"PINE TREE ENTERTAINMENT LTD","10866 WILSHIRE BLVD,LOS ANGELES,CA,90024","10/10/2019","","10866, Wilshire Boulevard, Westwood Village, Westwood, Los Angeles, Los Angeles County, California, 90024, United States","34.059184384615385","-118.44201938461538"
"ALEXANDRA DYER M.D.","1441 VETERAN AVENUE,LOS ANGELES,CA,90024","01/01/2019","","1441, Veteran Avenue, Westwood, Los Angeles, Los Angeles County, California, 90024, United States","34.053045061224495","-118.44380622448979"
"MAGIC & GOLIATH BOOKS LLC","10866 WILSHIRE BLVD,LOS ANGELES,CA,90024","11/27/2019","","10866, Wilshire Boulevard, Westwood Village, Westwood, Los Angeles, Los Angeles County, California, 90024, United States","34.059184384615385","-118.44201938461538"
"3L CAPITAL MANAGEMENT LLC","1100 GLENDON AVENUE,LOS ANGELES,CA,90024","01/01/2019","","Westwood Center, 1100, Glendon Avenue, Westwood Village, Westwood, Los Angeles, Los Angeles County, California, 90024, United States","34.060541799999996","-118.44349541162904"
"SDS SHF GP, LLC","1281 WESTWOOD BLVD,LOS ANGELES,CA,90024","12/23/2019","","1281, Westwood Boulevard, Westwood Village, Westwood, Los Angeles, Los Angeles County, California, 90024, United States","34.05718210204082","-118.44297175510204"
"NNMF SUB-CDE XVIII LLC","1281 WESTWOOD BLVD,LOS ANGELES,CA,90024","01/01/2019","08/08/2019","1281, Westwood Boulevard, Westwood Village, Westwood, Los Angeles, Los Angeles County, California, 90024, United States","34.05718210204082","-118.44297175510204"
"PFC MANAGEMENT LLC","10921 WILSHIRE BLVD,LOS ANGELES,CA,90024","02/01/2019","","Westwood Medical Plaza, 10921, Wilshire Boulevard, Westwood Village, Westwood, Los Angeles, Los Angeles County, California, 90024, United States","34.05886315","-118.44482552240149"
"RISING SUN RECORDS, LLC","10960 WILSHIRE BLVD,LOS ANGELES,CA,90024","02/01/2019","","Equinox Building, 10960, Wilshire Boulevard, Westwood Village, Westwood, Los Angeles, Los Angeles County, California, 90024, United States","34.05787365","-118.44592572625439"
"BY ALEXANDER LLC","10960 WILSHIRE BLVD,LOS ANGELES,CA,90024","10/01/2019","","Equinox Building, 10960, Wilshire Boulevard, Westwood Village, Westwood, Los Angeles, Los Angeles County, California, 90024, United States","34.05787365","-118.44592572625439"
"SLC WLG LLC","461 LEVERING AVENUE,LOS ANGELES,CA,90024","06/11/2019","","461, Levering Avenue, Westwood Village, Westwood, Los Angeles, Los Angeles County, California, 90024, United States","34.06798211263253","-118.45683566457558"
"NNMF SUB-CDE XIX LLC","1281 WESTWOOD BLVD,LOS ANGELES,CA,90024","01/01/2019","08/27/2019","1281, Westwood Boulevard, Westwood Village, Westwood, Los Angeles, Los Angeles County, California, 90024, United States","34.05718210204082","-118.44297175510204"
"VALKYRAE, INC.","10960 WILSHIRE BLVD,LOS ANGELES,CA,90024","10/23/2019","","Equinox Building, 10960, Wilshire Boulevard, Westwood Village, Westwood, Los Angeles, Los Angeles County, California, 90024, United States","34.05787365","-118.44592572625439"
"ELK MARKETING LLC","10866 WILSHIRE BLVD,LOS ANGELES,CA,90024","01/01/2019","","10866, Wilshire Boulevard, Westwood Village, Westwood, Los Angeles, Los Angeles County, California, 90024, United States","34.059184384615385","-118.44201938461538"
"KIAN PROPERTIES LLC","10670 ASHTON AVENUE,LOS ANGELES,CA,90024","01/01/2019","","10670, Ashton Avenue, Westwood Village, Westwood, Los Angeles, Los Angeles County, California, 90024, United States","34.059867458381866","-118.4345748876649"
"NABERHOOD PRODUCTIONS","10960 WILSHIRE BLVD,LOS ANGELES,CA,90024","09/03/2019","","Equinox Building, 10960, Wilshire Boulevard, Westwood Village, Westwood, Los Angeles, Los Angeles County, California, 90024, United States","34.05787365","-118.44592572625439"
"WESTSIDE EQUITY PARTNERS LLC/SUPERIOR CAPITAL GROUP LLC","1550 WESTWOOD BLVD,LOS ANGELES,CA,90024","06/05/2019","","1550, Westwood Boulevard, Westwood Village, Westwood, Los Angeles, Los Angeles County, California, 90024, United States","34.05352124489796","-118.44006865306123"
"NNMF SUB-CDE XXXIII LLC","1281 WESTWOOD BLVD,LOS ANGELES,CA,90024","01/01/2019","","1281, Westwood Boulevard, Westwood Village, Westwood, Los Angeles, Los Angeles County, California, 90024, United States","34.05718210204082","-118.44297175510204"
"SDS SUPPORTIVE HOUSING FUND, LP","1281 WESTWOOD BLVD,LOS ANGELES,CA,90024","12/23/2019","","1281, Westwood Boulevard, Westwood Village, Westwood, Los Angeles, Los Angeles County, California, 90024, United States","34.05718210204082","-118.44297175510204"
"SPF 45, INC.","10990 WILSHIRE BLVD,LOS ANGELES,CA,90024","01/01/2019","","KB Home, 10990, Wilshire Boulevard, Westwood Village, Westwood, Los Angeles, Los Angeles County, California, 90024, United States","34.0575914","-118.4471678574368"
"CHASE NMTC CSOTD INVESTMENT FUND LLC","1281 WESTWOOD BLVD,LOS ANGELES,CA,90024","04/01/2019","12/31/2019","1281, Westwood Boulevard, Westwood Village, Westwood, Los Angeles, Los Angeles County, California, 90024, United States","34.05718210204082","-118.44297175510204"
"INTERNATIONAL PRIME SOURCING INC","10724 WILSHIRE BLVD,LOS ANGELES,CA,90024","09/01/2019","","10724, Wilshire Boulevard, Westwood, Los Angeles, Los Angeles County, California, 90024, United States","34.060533935838116","-118.43682539137582"
"FAANGS INC","10877 WILSHIRE BLVD,LOS ANGELES,CA,90024","12/31/2019","","10877, Wilshire Boulevard, Westwood Village, Westwood, Los Angeles, Los Angeles County, California, 90024, United States","34.05927025","-118.4423481"
"ZOOM ERRAND INC","10850 WILSHIRE BLVD,LOS ANGELES,CA,90024","01/01/2019","","English Language Center - ELC Los Angeles, 10850, Wilshire Boulevard, Westwood Village, Westwood, Los Angeles, Los Angeles County, California, 90024, United States","34.05913165","-118.44120737686"
"NNMF SUB-CDE XVII LLC","1281 WESTWOOD BLVD,LOS ANGELES,CA,90024","01/01/2019","08/08/2019","1281, Westwood Boulevard, Westwood Village, Westwood, Los Angeles, Los Angeles County, California, 90024, United States","34.05718210204082","-118.44297175510204"
"ELENOLENSKA, LLC","10960 WILSHIRE BLVD,LOS ANGELES,CA,90024","04/25/2019","","Equinox Building, 10960, Wilshire Boulevard, Westwood Village, Westwood, Los Angeles, Los Angeles County, California, 90024, United States","34.05787365","-118.44592572625439"
"NNMF SUB-CDE XV LLC","1281 WESTWOOD BLVD,LOS ANGELES,CA,90024","01/01/2019","12/31/2019","1281, Westwood Boulevard, Westwood Village, Westwood, Los Angeles, Los Angeles County, California, 90024, United States","34.05718210204082","-118.44297175510204"
"MADDIE ALEXA LLC","10960 WILSHIRE BLVD,LOS ANGELES,CA,90024","01/01/2019","","Equinox Building, 10960, Wilshire Boulevard, Westwood Village, Westwood, Los Angeles, Los Angeles County, California, 90024, United States","34.05787365","-118.44592572625439"
"OUR GENERATION ENTERTAINMENT LLC","10960 WILSHIRE BLVD,LOS ANGELES,CA,90024","01/01/2019","","Equinox Building, 10960, Wilshire Boulevard, Westwood Village, Westwood, Los Angeles, Los Angeles County, California, 90024, United States","34.05787365","-118.44592572625439"
"EMQUIES VENTURES, LLC","10960 WILSHIRE BLVD,LOS ANGELES,CA,90024","09/19/2019","","Equinox Building, 10960, Wilshire Boulevard, Westwood Village, Westwood, Los Angeles, Los Angeles County, California, 90024, United States","34.05787365","-118.44592572625439"
"BOO'S CHOICE, LLC","10727 WILSHIRE BLVD,LOS ANGELES,CA,90024","06/26/2019","","10727, Wilshire Boulevard, Westwood, Los Angeles, Los Angeles County, California, 90024, United States","34.06067723345187","-118.43696291879174"
"SWEET BABY COMPANY, LLC","1355 WESTWOOD BLVD,LOS ANGELES,CA,90024","03/01/2019","","1355, Westwood Boulevard, Westwood Village, Westwood, Los Angeles, Los Angeles County, California, 90024, United States","34.0559875","-118.44225175"
"KA MALUHIA INC","1355 WESTWOOD BLVD,LOS ANGELES,CA,90024","04/01/2019","12/31/2019","1355, Westwood Boulevard, Westwood Village, Westwood, Los Angeles, Los Angeles County, California, 90024, United States","34.0559875","-118.44225175"
"SPREAD THE WORD USA LLC","1762 WESTWOOD BLVD,LOS ANGELES,CA,90024","01/09/2019","12/12/2019","1762, Westwood Boulevard, Westwood, Los Angeles, Los Angeles County, California, 90024, United States","34.05065342857143","-118.43759595918367"
"ILLEGAL CIVILIZATION INC","10960 WILSHIRE BLVD,LOS ANGELES,CA,90024","01/01/2019","","Equinox Building, 10960, Wilshire Boulevard, Westwood Village, Westwood, Los Angeles, Los Angeles County, California, 90024, United States","34.05787365","-118.44592572625439"
"1145 RESTAURANT LLC","1145 WESTWOOD BLVD,LOS ANGELES,CA,90024","02/21/2019","03/17/2020","1145, Westwood Boulevard, Westwood Village, Westwood, Los Angeles, Los Angeles County, California, 90024, United States","34.06014720456853","-118.44533247018182"
"CHIKHOUSE PRODUCTIONS, INC.","10990 WILSHIRE BLVD,LOS ANGELES,CA,90024","01/22/2019","","KB Home, 10990, Wilshire Boulevard, Westwood Village, Westwood, Los Angeles, Los Angeles County, California, 90024, United States","34.0575914","-118.4471678574368"
"EHSAN SAADAT, MD INC.","865 COMSTOCK AVENUE,LOS ANGELES,CA,90024","01/24/2019","","865, Comstock Avenue, Westwood, Los Angeles, Los Angeles County, California, 90024, United States","34.06876546383873","-118.42612856576129"
"INKARI SUPERFOODS LLC","1440 VETERAN AVENUE,LOS ANGELES,CA,90024","02/13/2019","","1440, Veteran Avenue, Westwood, Los Angeles, Los Angeles County, California, 90024, United States","34.05325425","-118.4437427"
"N E BARCELO INC","10905 OHIO AVENUE,LOS ANGELES,CA,90024","09/01/2019","","10905, Ohio Avenue, Westwood Village, Westwood, Los Angeles, Los Angeles County, California, 90024-3990, United States","34.0535292","-118.44197572103971"
"LOW EARTH ORBIT","10595 ASHTON AVENUE,LOS ANGELES,CA,90024","06/24/2019","","10595, Ashton Avenue, Westwood Village, Westwood, Los Angeles, Los Angeles County, California, 90024, United States","34.060744666666665","-118.43280399999999"
"HUBSTER, INC.","1441 VETERAN AVENUE,LOS ANGELES,CA,90024","01/01/2019","","1441, Veteran Avenue, Westwood, Los Angeles, Los Angeles County, California, 90024, United States","34.053045061224495","-118.44380622448979"
"BOGDAN ANDREI BAGDASAR","714 VETERAN AVENUE,LOS ANGELES,CA,90024","09/11/2019","","714, Veteran Avenue, Westwood Village, Westwood, Los Angeles, Los Angeles County, California, 90024, United States","34.06367925","-118.45249204618231"
"SWAN BALLOON INC","10390 WILSHIRE BLVD,LOS ANGELES,CA,90024","01/01/2019","","Wilshire Boulevard, Westwood, Los Angeles, Los Angeles County, California, 90024, United States","34.0611221","-118.4346192"
"JERRY WINCHELL","11070 STRATHMORE DRIVE,LOS ANGELES,CA,90024","10/31/2019","","Strathmore Terrace, 11070, Strathmore Drive, Westwood Village, Westwood, Los Angeles, Los Angeles County, California, 90024, United States","34.063915050000006","-118.45226684033057"
"EPIC PACKAGING GROUP","865 COMSTOCK AVENUE,LOS ANGELES,CA,90024","02/11/2019","","865, Comstock Avenue, Westwood, Los Angeles, Los Angeles County, California, 90024, United States","34.06876546383873","-118.42612856576129"
"JULI JUTEAU L.M.F.T.","1575 WESTWOOD BLVD,LOS ANGELES,CA,90024","04/08/2019","","1575, Westwood Boulevard, Westwood, Los Angeles, Los Angeles County, California, 90024, United States","34.05270696875","-118.43960959375"
"HAPPY MOVING INC","10905 OHIO AVENUE,LOS ANGELES,CA,90024","11/04/2019","","10905, Ohio Avenue, Westwood Village, Westwood, Los Angeles, Los Angeles County, California, 90024-3990, United States","34.0535292","-118.44197572103971"
"MECHANICAL HOUND INC.","1370 VETERAN AVENUE,LOS ANGELES,CA,90024","04/16/2019","","1370, Veteran Avenue, West Los Angeles, Los Angeles, Los Angeles County, California, 90024-3990, United States","34.054776200000006","-118.44487704476086"
"POWERED VENTURES INC","950 GAYLEY AVENUE,LOS ANGELES,CA,90024","05/01/2019","","950, Gayley Avenue, Westwood Village, Westwood, Los Angeles, Los Angeles County, California, 90024, United States","34.06243412244898","-118.44806273469388"
"SEABEAN LLC","1418 KELTON AVENUE,LOS ANGELES,CA,90024","08/29/2019","","1412-1418, Kelton Avenue, West Los Angeles, Los Angeles, Los Angeles County, California, 90024-3990, United States","34.05401165","-118.44288919047274"
"THE 2013 LEE FAMILY TRUST","10640 WILKINS AVENUE,LOS ANGELES,CA,90024","01/01/2019","","10640, Wilkins Avenue, Westwood, Los Angeles, Los Angeles County, California, 90024, United States","34.05661519870869","-118.43279265944552"
"AYB LLC","1277 S BEVERLY GLEN BLVD,LOS ANGELES,CA,90024","01/02/2019","","1277, South Beverly Glen Boulevard, Westwood, Los Angeles, Los Angeles County, California, 90024, United States","34.064521032037725","-118.42761035568151"
"644 MIDVALE LLC","10966 ROEBLING AVENUE,LOS ANGELES,CA,90024","08/12/2019","","10966, Roebling Avenue, Westwood Village, Westwood, Los Angeles, Los Angeles County, California, 90024, United States","34.065004122448975","-118.44934963265307"
"KAT EM COMPANY LLC","10430 WILSHIRE BLVD,LOS ANGELES,CA,90024","09/05/2019","","Wilshire Boulevard, Westwood, Los Angeles, Los Angeles County, California, 90024, United States","34.0611221","-118.4346192"
"LEGACY MUSIC PROJECT","1527 VETERAN AVENUE,LOS ANGELES,CA,90024","01/23/2019","","1527, Veteran Avenue, West Los Angeles, Los Angeles, Los Angeles County, California, 90024-3990, United States","34.0516249","-118.44288532500772"
"MASS APPEAL LLC","1440 VETERAN AVENUE,LOS ANGELES,CA,90024","06/01/2019","","1440, Veteran Avenue, Westwood, Los Angeles, Los Angeles County, California, 90024, United States","34.05325425","-118.4437427"
"SOFLO DOMESTICS LLC","10880 WILSHIRE BLVD,LOS ANGELES,CA,90024","07/08/2019","","U.S. Coast Guard - Motion Picture and Television Office, 10880, Wilshire Boulevard, Westwood Village, Westwood, Los Angeles, Los Angeles County, California, 90024, United States","34.058617","-118.4432767"
"KMS STRUCTURAL DESIGN INC","1377 S BEVERLY GLEN BLVD,LOS ANGELES,CA,90024","04/17/2019","","1377, South Beverly Glen Boulevard, Westwood, Los Angeles, Los Angeles County, California, 90024, United States","34.062679162773996","-118.42642511846071"
"WILSHIRE EQUITY LLC","10880 WILSHIRE BLVD,LOS ANGELES,CA,90024","12/09/2019","","U.S. Coast Guard - Motion Picture and Television Office, 10880, Wilshire Boulevard, Westwood Village, Westwood, Los Angeles, Los Angeles County, California, 90024, United States","34.058617","-118.4432767"
"ELI TABARIAI D.M.D. INC","1700 WESTWOOD BLVD,LOS ANGELES,CA,90024","01/01/2019","","1700, Westwood Boulevard, Westwood, Los Angeles, Los Angeles County, California, 90024, United States","34.051796","-118.438581"
"HH BONNER, LLC","10590 WILSHIRE BLVD,LOS ANGELES,CA,90024","07/01/2019","","10590, Wilshire Boulevard, Westwood, Los Angeles, Los Angeles County, California, 90024, United States","34.061639989301355","-118.43330111419108"
"NEWRF, INC.","1055 BROXTON AVENUE,LOS ANGELES,CA,90024","09/05/2019","","Ami Sushi, 1055, Broxton Avenue, Westwood Village, Westwood, Los Angeles, Los Angeles County, California, 90024, United States","34.0614911","-118.446441"
"LIBRA AGENCY CO","10880 WILSHIRE BLVD,LOS ANGELES,CA,90024","01/01/2019","","U.S. Coast Guard - Motion Picture and Television Office, 10880, Wilshire Boulevard, Westwood Village, Westwood, Los Angeles, Los Angeles County, California, 90024, United States","34.058617","-118.4432767"
"SUSANNAH CORRINGTON","1511 SELBY AVENUE,LOS ANGELES,CA,90024","01/01/2019","","1511, Selby Avenue, Westwood, Los Angeles, Los Angeles County, California, 90024, United States","34.05539344897959","-118.43801448979592"
"MAUNG CHIT KHAING MD","919 LEVERING AVENUE,LOS ANGELES,CA,90024","01/01/2019","","919, Levering Avenue, Westwood Village, Westwood, Los Angeles, Los Angeles County, California, 90024, United States","34.063249673469386","-118.44888642857143"
"JOHN J WALSH","10375 WILSHIRE BLVD,LOS ANGELES,CA,90024","10/31/2019","","Wilshire Boulevard, Westwood, Los Angeles, Los Angeles County, California, 90024, United States","34.0611221","-118.4346192"
"650 MIDVLE LLC","10966 ROEBLING AVENUE,LOS ANGELES,CA,90024","08/12/2019","","10966, Roebling Avenue, Westwood Village, Westwood, Los Angeles, Los Angeles County, California, 90024, United States","34.065004122448975","-118.44934963265307"
"BEACON ADVISORY SERVICES LLC","10677 WILKINS AVENUE,LOS ANGELES,CA,90024","01/01/2019","","10677, Wilkins Avenue, Westwood, Los Angeles, Los Angeles County, California, 90024, United States","34.05653525929999","-118.43398121610595"
"ADLER IMPORTS, LLC","10336 WILSHIRE BLVD,LOS ANGELES,CA,90024","01/15/2019","","Wilshire Boulevard, Westwood, Los Angeles, Los Angeles County, California, 90024, United States","34.0611221","-118.4346192"
"IKRAH INC.","827 LEVERING AVENUE,LOS ANGELES,CA,90024","02/25/2019","","827, Levering Avenue, Westwood Village, Westwood, Los Angeles, Los Angeles County, California, 90024, United States","34.063740146341466","-118.44941429268293"
"10971 ROEBLING LLC","10966 ROEBLING AVENUE,LOS ANGELES,CA,90024","07/19/2019","","10966, Roebling Avenue, Westwood Village, Westwood, Los Angeles, Los Angeles County, California, 90024, United States","34.065004122448975","-118.44934963265307"
"ANASTASIA MARIE TROCK HUNTER","10667 WILKINS AVENUE,LOS ANGELES,CA,90024","01/01/2019","","10667, Wilkins Avenue, Westwood, Los Angeles, Los Angeles County, California, 90024, United States","34.05659992261817","-118.43367904160864"
"KNWN LLC","10707 WILKINS AVENUE,LOS ANGELES,CA,90024","04/25/2019","","10707, Wilkins Avenue, Westwood, Los Angeles, Los Angeles County, California, 90024, United States","34.056319307692306","-118.43499323076924"
"LEADSWIFT MEDIA","450 MIDVALE AVENUE,LOS ANGELES,CA,90024","08/09/2019","","450, Midvale Avenue, Westwood Village, Westwood, Los Angeles, Los Angeles County, California, 90024, United States","34.06890671428571","-118.45243087755102"
"ELHAM RAMTIN PSYD LLC","1328 WESTWOOD BLVD,LOS ANGELES,CA,90024","01/01/2019","","1328, Westwood Boulevard, Westwood Village, Westwood, Los Angeles, Los Angeles County, California, 90024, United States","34.056581249999994","-118.44238833333333"
"PREFERRED THERAPY ASSOCIATES, INC","1390 KELTON AVENUE,LOS ANGELES,CA,90024","06/03/2019","","1390, Kelton Avenue, Westwood, Los Angeles, Los Angeles County, California, 90024, United States","34.0545244435208","-118.44354699556195"
"NINJOE INC","1380 VETERAN AVENUE,LOS ANGELES,CA,90024","05/16/2019","","1380, Veteran Avenue, West Los Angeles, Los Angeles, Los Angeles County, California, 90024-3990, United States","34.05443135","-118.44439834048823"
"APS FILM DISTRIBUTION INC","10531 ASHTON AVENUE,LOS ANGELES,CA,90024","12/01/2019","","10531, Ashton Avenue, Westwood Village, Westwood, Los Angeles, Los Angeles County, California, 90024, United States","34.06287038222184","-118.43142173849989"
"PACKD LLC","10727 WILSHIRE BLVD,LOS ANGELES,CA,90024","09/01/2019","","10727, Wilshire Boulevard, Westwood, Los Angeles, Los Angeles County, California, 90024, United States","34.06067723345187","-118.43696291879174"
"LAURA DARKE, PH.D., INC","1033 GAYLEY AVENUE,LOS ANGELES,CA,90024","01/01/2019","","1033, Gayley Avenue, Westwood Village, Westwood, Los Angeles, Los Angeles County, California, 90024, United States","34.061224","-118.44774214138386"
"700 LEVERING LLC","10966 ROEBLING AVENUE,LOS ANGELES,CA,90024","04/19/2019","","10966, Roebling Avenue, Westwood Village, Westwood, Los Angeles, Los Angeles County, California, 90024, United States","34.065004122448975","-118.44934963265307"
"9TH FLOOR MEDIA, LLC","10350 WILSHIRE BLVD,LOS ANGELES,CA,90024","08/06/2019","","Wilshire Boulevard, Westwood, Los Angeles, Los Angeles County, California, 90024, United States","34.0611221","-118.4346192"
"QUINELLA CORPORATION","10717 WILSHIRE BLVD,LOS ANGELES,CA,90024","01/01/2019","","10717, Wilshire Boulevard, Westwood, Los Angeles, Los Angeles County, California, 90024, United States","34.060764451355","-118.43655564233337"
"SABRINA SETAREH, OTR/L","1551 MANNING AVENUE,LOS ANGELES,CA,90024","01/01/2019","","1551, Manning Avenue, Westwood, Los Angeles, Los Angeles County, California, 90024, United States","34.056135","-118.434759"
"DEZZA LLC","1260 VETERAN AVENUE,LOS ANGELES,CA,90024","03/22/2019","","1260, Veteran Avenue, Westwood Village, Westwood, Los Angeles, Los Angeles County, California, 90024, United States","34.056657666666666","-118.44667712500001"
"THE HERB LLC","10727 WILSHIRE BLVD,LOS ANGELES,CA,90024","02/20/2019","","10727, Wilshire Boulevard, Westwood, Los Angeles, Los Angeles County, California, 90024, United States","34.06067723345187","-118.43696291879174"
"SELECT TENNIS GROUP","10599 WILSHIRE BLVD,LOS ANGELES,CA,90024","12/20/2019","","10599, Wilshire Boulevard, Westwood, Los Angeles, Los Angeles County, California, 90024, United States","34.061668","-118.433632"
"THE SAADAT GROUP INC","865 COMSTOCK AVENUE,LOS ANGELES,CA,90024","02/13/2019","","865, Comstock Avenue, Westwood, Los Angeles, Los Angeles County, California, 90024, United States","34.06876546383873","-118.42612856576129"
"ALEXANDRA ADELA COCEAN","1539 WOODRUFF AVENUE,LOS ANGELES,CA,90024","12/02/2019","","1539, Woodruff Avenue, Westwood, Los Angeles, Los Angeles County, California, 90024, United States","34.06029679591837","-118.4257503265306"
"KATHLEEN M. ROGERS","10375 WILSHIRE BLVD,LOS ANGELES,CA,90024","08/15/2019","","Wilshire Boulevard, Westwood, Los Angeles, Los Angeles County, California, 90024, United States","34.0611221","-118.4346192"
"1001 ENTERTAINMENT INC","1340 S BEVERLY GLEN BLVD,LOS ANGELES,CA,90024","01/01/2019","","1340, South Beverly Glen Boulevard, Westwood, Los Angeles, Los Angeles County, California, 90024, United States","34.063466568865614","-118.42652563787371"
"XX PROJECT INC","10647 WILKINS AVENUE,LOS ANGELES,CA,90024","02/01/2019","","10647, Wilkins Avenue, Westwood, Los Angeles, Los Angeles County, California, 90024, United States","34.05672924925453","-118.43307469261406"
"JM BROTHERS INC","1248 WESTWOOD BLVD,LOS ANGELES,CA,90024","01/07/2019","","Ramen Yamadaya, 1248, Westwood Boulevard, Westwood Village, Westwood, Los Angeles, Los Angeles County, California, 90024, United States","34.0578138","-118.4430765"
"YASSI BANAYAN DESIGN","10660 WILSHIRE BLVD,LOS ANGELES,CA,90024","05/01/2019","","10660, Wilshire Boulevard, Westwood, Los Angeles, Los Angeles County, California, 90024, United States","34.06096043628057","-118.43484492151715"
"NNMF SUB CDE XXV LLC","1281 WESTWOOD BLVD,LOS ANGELES,CA,90024","01/01/2019","","1281, Westwood Boulevard, Westwood Village, Westwood, Los Angeles, Los Angeles County, California, 90024, United States","34.05718210204082","-118.44297175510204"
"CALIFORNIA AESTHETIC & MEDICAL SPA","1051 GLENDON AVENUE,LOS ANGELES,CA,90024","04/19/2019","","1051, Glendon Avenue, Westwood Village, Westwood, Los Angeles, Los Angeles County, California, 90024, United States","34.06166144897959","-118.44433681632653"
"LONDON COWBOYS LLC","10877 WILSHIRE BLVD,LOS ANGELES,CA,90024","04/09/2019","","10877, Wilshire Boulevard, Westwood Village, Westwood, Los Angeles, Los Angeles County, California, 90024, United States","34.05927025","-118.4423481"
"KAIDO INC","1049 GAYLEY AVENUE,LOS ANGELES,CA,90024","01/15/2019","","Thai House, 1049, Gayley Avenue, Westwood Village, Westwood, Los Angeles, Los Angeles County, California, 90024, United States","34.0610306","-118.4473883"
"NATIONAL NEW MARKETS FUNDS LLC","1281 WESTWOOD BLVD,LOS ANGELES,CA,90024","01/01/2019","","1281, Westwood Boulevard, Westwood Village, Westwood, Los Angeles, Los Angeles County, California, 90024, United States","34.05718210204082","-118.44297175510204"
"NNMF SUB-CDE XX LLC","1281 WESTWOOD BLVD,LOS ANGELES,CA,90024","01/01/2019","","1281, Westwood Boulevard, Westwood Village, Westwood, Los Angeles, Los Angeles County, California, 90024, United States","34.05718210204082","-118.44297175510204"
"14HUNDRED PUBLISHING, LLC","10960 WILSHIRE BLVD,LOS ANGELES,CA,90024","01/01/2019","","Equinox Building, 10960, Wilshire Boulevard, Westwood Village, Westwood, Los Angeles, Los Angeles County, California, 90024, United States","34.05787365","-118.44592572625439"
"ILLEGAL CINEMA LLC","10960 WILSHIRE BLVD,LOS ANGELES,CA,90024","01/01/2019","","Equinox Building, 10960, Wilshire Boulevard, Westwood Village, Westwood, Los Angeles, Los Angeles County, California, 90024, United States","34.05787365","-118.44592572625439"
"JOHN N NJAU","10880 WILSHIRE BLVD,LOS ANGELES,CA,90024","04/10/2019","","U.S. Coast Guard - Motion Picture and Television Office, 10880, Wilshire Boulevard, Westwood Village, Westwood, Los Angeles, Los Angeles County, California, 90024, United States","34.058617","-118.4432767"
"SONNY PROPERTIES INC","10855 WELLWORTH AVENUE,LOS ANGELES,CA,90024","01/01/2019","","10855, Wellworth Avenue, Westwood Village, Westwood, Los Angeles, Los Angeles County, California, 90024, United States","34.05738442857143","-118.441367"
"FYG COFFEE CO, LLC","10960 WILSHIRE BLVD,LOS ANGELES,CA,90024","01/01/2019","","Equinox Building, 10960, Wilshire Boulevard, Westwood Village, Westwood, Los Angeles, Los Angeles County, California, 90024, United States","34.05787365","-118.44592572625439"
"NNMF SUB CDE XXIV LLC","1281 WESTWOOD BLVD,LOS ANGELES,CA,90024","01/01/2019","","1281, Westwood Boulevard, Westwood Village, Westwood, Los Angeles, Los Angeles County, California, 90024, United States","34.05718210204082","-118.44297175510204"
"HARAZ LLC","1563 WESTWOOD BLVD,LOS ANGELES,CA,90024","03/28/2019","","1563, Westwood Boulevard, Westwood Village, Westwood, Los Angeles, Los Angeles County, California, 90024, United States","34.05302167647059","-118.43988150000001"
"BAJA CALIFORNIA TACOS INC","935 BROXTON AVENUE,LOS ANGELES,CA,90024","03/01/2019","","935, Broxton Avenue, Westwood Village, Westwood, Los Angeles, Los Angeles County, California, 90024, United States","34.06322269387755","-118.4471414489796"
"LAZ KARP ASSOCIATES LLC","1550 WESTWOOD BLVD,LOS ANGELES,CA,90024","01/14/2019","","1550, Westwood Boulevard, Westwood Village, Westwood, Los Angeles, Los Angeles County, California, 90024, United States","34.05352124489796","-118.44006865306123"
"WASHINGTON INTERNATIONAL EXCHANGE CENTER, INC.","10866 WILSHIRE BLVD,LOS ANGELES,CA,90024","01/01/2019","","10866, Wilshire Boulevard, Westwood Village, Westwood, Los Angeles, Los Angeles County, California, 90024, United States","34.059184384615385","-118.44201938461538"
"DIP N MIX LLC","964 GAYLEY AVENUE,LOS ANGELES,CA,90024","06/15/2019","","964, Gayley Avenue, Westwood Village, Westwood, Los Angeles, Los Angeles County, California, 90024, United States","34.06233783673469","-118.44802402040816"
"NNMF SUB CDE XXI LLC","1281 WESTWOOD BLVD,LOS ANGELES,CA,90024","01/01/2019","","1281, Westwood Boulevard, Westwood Village, Westwood, Los Angeles, Los Angeles County, California, 90024, United States","34.05718210204082","-118.44297175510204"
"REVOLUTION STUDIOS HOLDING COMPANY, LLC","10877 WILSHIRE BLVD,LOS ANGELES,CA,90024","04/15/2019","","10877, Wilshire Boulevard, Westwood Village, Westwood, Los Angeles, Los Angeles County, California, 90024, United States","34.05927025","-118.4423481"
"EZ GREEN WASTE INC","10850 WILSHIRE BLVD,LOS ANGELES,CA,90024","01/03/2019","","English Language Center - ELC Los Angeles, 10850, Wilshire Boulevard, Westwood Village, Westwood, Los Angeles, Los Angeles County, California, 90024, United States","34.05913165","-118.44120737686"
"1400/800 TOURING COMPANY","10960 WILSHIRE BLVD,LOS ANGELES,CA,90024","01/01/2019","","Equinox Building, 10960, Wilshire Boulevard, Westwood Village, Westwood, Los Angeles, Los Angeles County, California, 90024, United States","34.05787365","-118.44592572625439"
"HEGE FOSSUM, LLC","10990 WILSHIRE BLVD,LOS ANGELES,CA,90024","01/22/2019","","KB Home, 10990, Wilshire Boulevard, Westwood Village, Westwood, Los Angeles, Los Angeles County, California, 90024, United States","34.0575914","-118.4471678574368"
"TECHSPACE GLENDON LLC","1100 GLENDON AVENUE,LOS ANGELES,CA,90024","05/01/2019","","Westwood Center, 1100, Glendon Avenue, Westwood Village, Westwood, Los Angeles, Los Angeles County, California, 90024, United States","34.060541799999996","-118.44349541162904"
"LAWRENCE PUBLISHING LLC","10877 WILSHIRE BLVD,LOS ANGELES,CA,90024","01/29/2019","","10877, Wilshire Boulevard, Westwood Village, Westwood, Los Angeles, Los Angeles County, California, 90024, United States","34.05927025","-118.4423481"
"MJ PARADISE INC","10614 EASTBORNE AVENUE,LOS ANGELES,CA,90024","03/01/2019","","10614, Eastborne Avenue, Westwood, Los Angeles, Los Angeles County, California, 90024, United States","34.054319285714286","-118.43046385714285"
"WESTWOOD RESTAURANT LLC","10899 WILSHIRE BLVD,LOS ANGELES,CA,90024","01/22/2019","","Hammer Museum, 10899, Wilshire Boulevard, Westwood Village, Westwood, Los Angeles, Los Angeles County, California, 90024, United States","34.0593622","-118.4433982"
"HENRY ROSE LLC","10960 WILSHIRE BLVD,LOS ANGELES,CA,90024","01/01/2019","","Equinox Building, 10960, Wilshire Boulevard, Westwood Village, Westwood, Los Angeles, Los Angeles County, California, 90024, United States","34.05787365","-118.44592572625439"
"NNMF SUB CDE XXXIV LLC","1281 WESTWOOD BLVD,LOS ANGELES,CA,90024","01/01/2019","","1281, Westwood Boulevard, Westwood Village, Westwood, Los Angeles, Los Angeles County, California, 90024, United States","34.05718210204082","-118.44297175510204"
"DUSTY GREEN INC","1390 KELTON AVENUE,LOS ANGELES,CA,90024","01/23/2019","","1390, Kelton Avenue, Westwood, Los Angeles, Los Angeles County, California, 90024, United States","34.0545244435208","-118.44354699556195"
"1400 ENTERTAINMENT INC","10960 WILSHIRE BLVD,LOS ANGELES,CA,90024","01/01/2019","","Equinox Building, 10960, Wilshire Boulevard, Westwood Village, Westwood, Los Angeles, Los Angeles County, California, 90024, United States","34.05787365","-118.44592572625439"
"LIFTON INSTITUTE OF MEDIA ARTS AND SCIENCES","741 GAYLEY AVENUE,LOS ANGELES,CA,90024","01/17/2019","","741, Gayley Avenue, Westwood Village, Westwood, Los Angeles, Los Angeles County, California, 90024, United States","34.06459771579154","-118.44817630953591"
"VECTOR PRODUCTIONS, INC","907 WESTWOOD BLVD,LOS ANGELES,CA,90024","01/24/2019","","907, Westwood Boulevard, Westwood Village, Westwood, Los Angeles, Los Angeles County, California, 90024, United States","34.06311049496845","-118.44518150248378"
"NEURALX INCORPORATED","10956 1/2 WEYBURN AVENUE,LOS ANGELES,CA,90024","01/31/2019","","","find","find"
"BBH GLOBAL INC.","610 S MAIN STREET,LOS ANGELES,CA,90024","04/18/2019","","Pacific Electric Lofts, 610, South Main Street, Bunker Hill, Downtown, Los Angeles, Los Angeles County, California, 90014, United States","34.04464765","-118.24976516643201"
"NNMF SUB CDE XXIII LLC","1281 WESTWOOD BLVD,LOS ANGELES,CA,90024","01/01/2019","","1281, Westwood Boulevard, Westwood Village, Westwood, Los Angeles, Los Angeles County, California, 90024, United States","34.05718210204082","-118.44297175510204"
"LIFTON INSTITUTE OF MEDIA ARTS AND SCIENCES","741 GAYLEY AVENUE,LOS ANGELES,CA,90024","01/15/2019","","741, Gayley Avenue, Westwood Village, Westwood, Los Angeles, Los Angeles County, California, 90024, United States","34.06459771579154","-118.44817630953591"
"NNMF SUB-CDE XXVI LLC","1281 WESTWOOD BLVD,LOS ANGELES,CA,90024","01/01/2019","","1281, Westwood Boulevard, Westwood Village, Westwood, Los Angeles, Los Angeles County, California, 90024, United States","34.05718210204082","-118.44297175510204"
"SF ENGINEERING","10311 EASTBORNE AVENUE,LOS ANGELES,CA,90024","02/06/2019","","10311, Eastborne Avenue, Westwood, Los Angeles, Los Angeles County, California, 90024, United States","34.06052946480066","-118.42247772613325"
"HOLLYWOOD HILLS VALET INC","1044 TIVERTON AVENUE,LOS ANGELES,CA,90024","05/06/2019","","1044, Tiverton Avenue, Westwood Village, Westwood, Los Angeles, Los Angeles County, California, 90024, United States","34.0611107755102","-118.4429633877551"
"CAPCOM MEDIA VENTURES, INC.","10960 WILSHIRE BLVD,LOS ANGELES,CA,90024","03/01/2019","","Equinox Building, 10960, Wilshire Boulevard, Westwood Village, Westwood, Los Angeles, Los Angeles County, California, 90024, United States","34.05787365","-118.44592572625439"
"REVOLUTION STUDIOS DISTRIBUTION COMPANY, LP","10877 WILSHIRE BLVD,LOS ANGELES,CA,90024","04/15/2019","","10877, Wilshire Boulevard, Westwood Village, Westwood, Los Angeles, Los Angeles County, California, 90024, United States","34.05927025","-118.4423481"
"NNMF SUB-CDE XXX LLC","1281 WESTWOOD BLVD,LOS ANGELES,CA,90024","01/01/2019","","1281, Westwood Boulevard, Westwood Village, Westwood, Los Angeles, Los Angeles County, California, 90024, United States","34.05718210204082","-118.44297175510204"
"COMSTOCK HILLS HOMEOWNERS ASSOCIATION","1429 COMSTOCK AVENUE,LOS ANGELES,CA,90024","01/31/2019","","1429, Comstock Avenue, Westwood, Los Angeles, Los Angeles County, California, 90024, United States","34.06404657014304","-118.42367217400992"
"SREDA LLC","10877 WILSHIRE BLVD,LOS ANGELES,CA,90024","04/02/2019","","10877, Wilshire Boulevard, Westwood Village, Westwood, Los Angeles, Los Angeles County, California, 90024, United States","34.05927025","-118.4423481"
"NNMF SUB-CDE XXVIII LLC","1281 WESTWOOD BLVD,LOS ANGELES,CA,90024","01/01/2019","","1281, Westwood Boulevard, Westwood Village, Westwood, Los Angeles, Los Angeles County, California, 90024, United States","34.05718210204082","-118.44297175510204"
"NNMF SUB CDE XXXV LLC","1281 WESTWOOD BLVD,LOS ANGELES,CA,90024","01/01/2019","","1281, Westwood Boulevard, Westwood Village, Westwood, Los Angeles, Los Angeles County, California, 90024, United States","34.05718210204082","-118.44297175510204"
"MICHAEL LAMAR WHITE II","10960 WILSHIRE BLVD,LOS ANGELES,CA,90024","01/01/2019","","Equinox Building, 10960, Wilshire Boulevard, Westwood Village, Westwood, Los Angeles, Los Angeles County, California, 90024, United States","34.05787365","-118.44592572625439"
"NMF SUB-CDE XXIX LLC","1281 WESTWOOD BLVD,LOS ANGELES,CA,90024","01/01/2019","","1281, Westwood Boulevard, Westwood Village, Westwood, Los Angeles, Los Angeles County, California, 90024, United States","34.05718210204082","-118.44297175510204"
"ME BUT OLDER PRODUCTIONS","10960 WILSHIRE BLVD,LOS ANGELES,CA,90024","01/01/2019","","Equinox Building, 10960, Wilshire Boulevard, Westwood Village, Westwood, Los Angeles, Los Angeles County, California, 90024, United States","34.05787365","-118.44592572625439"
"CHASE NMTC MI RENEWABLE CARBON INVEST FUND LLC","1281 WESTWOOD BLVD,LOS ANGELES,CA,90024","01/01/2019","","1281, Westwood Boulevard, Westwood Village, Westwood, Los Angeles, Los Angeles County, California, 90024, United States","34.05718210204082","-118.44297175510204"
"NNMF SUB CDE XXII LLC","1281 WESTWOOD BLVD,LOS ANGELES,CA,90024","01/01/2019","","1281, Westwood Boulevard, Westwood Village, Westwood, Los Angeles, Los Angeles County, California, 90024, United States","34.05718210204082","-118.44297175510204"
"S. CHRISTOPHER NUNEZ","1081 WESTWOOD BLVD,LOS ANGELES,CA,90024","05/15/2019","","1081, Westwood Boulevard, Westwood Village, Westwood, Los Angeles, Los Angeles County, California, 90024, United States","34.061176275510206","-118.44522148979593"
"DORDOGNE HOLDINGS LLC","10866 WILSHIRE BLVD,LOS ANGELES,CA,90024","05/17/2019","","10866, Wilshire Boulevard, Westwood Village, Westwood, Los Angeles, Los Angeles County, California, 90024, United States","34.059184384615385","-118.44201938461538"
"MECHSAN, INC","10880 WILSHIRE BLVD,LOS ANGELES,CA,90024","05/20/2019","","U.S. Coast Guard - Motion Picture and Television Office, 10880, Wilshire Boulevard, Westwood Village, Westwood, Los Angeles, Los Angeles County, California, 90024, United States","34.058617","-118.4432767"
"LAW OFFICE OF ALEX CHEN, APC","10880 Wilshire blvd,Los Angeles,CA,90024","06/10/2019","","U.S. Coast Guard - Motion Picture and Television Office, 10880, Wilshire Boulevard, Westwood Village, Westwood, Los Angeles, Los Angeles County, California, 90024, United States","34.058617","-118.4432767"
"PANDEMONIUM HOLDING CO., LLC","10880 WILSHIRE BLVD,LOS ANGELES,CA,90024","05/20/2019","","U.S. Coast Guard - Motion Picture and Television Office, 10880, Wilshire Boulevard, Westwood Village, Westwood, Los Angeles, Los Angeles County, California, 90024, United States","34.058617","-118.4432767"
"ANGELSON LLC","1666 THAYER AVENUE,LOS ANGELES,CA,90024","01/01/2019","","1666, Thayer Avenue, Westwood, Los Angeles, Los Angeles County, California, 90024, United States","34.05699533333333","-118.42772433333333"
"Home Business","1300 MIDVALE AVENUE,LOS ANGELES,CA,90024","08/29/2019","","1300, Midvale Avenue, Westwood Village, Westwood, Los Angeles, Los Angeles County, California, 90024, United States","34.056461","-118.444345"
"Home Business","10880 WILSHIRE BLVD,LOS ANGELES,CA,90024","10/01/2019","","U.S. Coast Guard - Motion Picture and Television Office, 10880, Wilshire Boulevard, Westwood Village, Westwood, Los Angeles, Los Angeles County, California, 90024, United States","34.058617","-118.4432767"
"Home Business","1666 THAYER AVENUE,LOS ANGELES,CA,90024","05/30/2019","08/12/2019","1666, Thayer Avenue, Westwood, Los Angeles, Los Angeles County, California, 90024, United States","34.05699533333333","-118.42772433333333"
"Home Business","1131 WESTWOOD BLVD,LOS ANGELES,CA,90024","06/01/2019","","U-Mini, 1131, Westwood Boulevard, Westwood Village, Westwood, Los Angeles, Los Angeles County, California, 90024, United States","34.0601191","-118.4453461"
"Home Business","10711 LE CONTE AVENUE,LOS ANGELES,CA,90024","10/04/2019","","10711, Le Conte Avenue, Westwood Village, Westwood, Los Angeles, Los Angeles County, California, 90024, United States","34.0645966","-118.43855031013712"
"Home Business","514 LORING AVENUE,LOS ANGELES,CA,90024","09/01/2019","","514, Loring Avenue, Westwood, Los Angeles, Los Angeles County, California, 90024, United States","34.07209793057061","-118.43373836011662"
"Home Business","10626 EASTBORNE AVENUE,LOS ANGELES,CA,90024","07/28/2019","","10626, Eastborne Avenue, Westwood, Los Angeles, Los Angeles County, California, 90024, United States","34.0541703877551","-118.43068059183673"
"Home Business","1358 WOODRUFF AVENUE,LOS ANGELES,CA,90024","10/01/2019","","1358, Woodruff Avenue, Westwood, Los Angeles, Los Angeles County, California, 90024, United States","34.06216651020408","-118.42839665306123"
"Home Business","1712 WESTWOOD BLVD,LOS ANGELES,CA,90024","07/22/2019","","Shamshiri Grill, 1712, Westwood Boulevard, Westwood, Los Angeles, Los Angeles County, California, 90024, United States","34.0515292","-118.438246"
"Home Business","1061 GAYLEY AVENUE,LOS ANGELES,CA,90024","07/15/2019","","1061, Gayley Avenue, Westwood Village, Westwood, Los Angeles, Los Angeles County, California, 90024, United States","34.060871367346934","-118.44715916326531"
"Home Business","1355 WESTWOOD BLVD,LOS ANGELES,CA,90024","07/23/2019","","1355, Westwood Boulevard, Westwood Village, Westwood, Los Angeles, Los Angeles County, California, 90024, United States","34.0559875","-118.44225175"
"Home Business","10769 ASHTON AVENUE,LOS ANGELES,CA,90024","07/01/2019","08/01/2019","10769, Ashton Avenue, Westwood Village, Westwood, Los Angeles, Los Angeles County, California, 90024, United States","34.059188625","-118.438287"
"Home Business","1732 MIDVALE AVENUE,LOS ANGELES,CA,90024","06/14/2019","","1732, Midvale Avenue, West Los Angeles, Los Angeles, Los Angeles County, California, 90024-3990, United States","34.05102685","-118.43903867826171"
"Home Business","1419 WESTWOOD BLVD,LOS ANGELES,CA,90024","07/01/2019","","1419, Westwood Boulevard, Westwood Village, Westwood, Los Angeles, Los Angeles County, California, 90024, United States","34.054986346938776","-118.44157234693878"
"Home Business","512 VETERAN AVENUE,LOS ANGELES,CA,90024","08/01/2019","","512, Veteran Avenue, Westwood Village, Westwood, Los Angeles, Los Angeles County, California, 90024, United States","34.068133755102046","-118.45470093877552"
"Home Business","500 LANDFAIR AVENUE,LOS ANGELES,CA,90024","11/26/2019","","University Cooperative Housing Association, 500, Landfair Avenue, Westwood Village, Westwood, Los Angeles, Los Angeles County, California, 90095, United States","34.06870245","-118.45053406411947"
"Home Business","10529 OHIO AVENUE,LOS ANGELES,CA,90024","11/01/2019","","10529, Ohio Avenue, Westwood, Los Angeles, Los Angeles County, California, 90024, United States","34.05954271428571","-118.429816"
"Home Business","1100 GLENDON AVENUE,LOS ANGELES,CA,90024","02/01/2019","","Westwood Center, 1100, Glendon Avenue, Westwood Village, Westwood, Los Angeles, Los Angeles County, California, 90024, United States","34.060541799999996","-118.44349541162904"
"Home Business","10650 KINNARD AVENUE,LOS ANGELES,CA,90024","01/01/2019","","10650, Kinnard Avenue, Westwood, Los Angeles, Los Angeles County, California, 90024, United States","34.055707705882355","-118.43280417647058"
"Home Business","10940 WILSHIRE BLVD,LOS ANGELES,CA,90024","01/01/2019","","The Tower, 10940, Wilshire Boulevard, Westwood Village, Westwood, Los Angeles, Los Angeles County, California, 90024, United States","34.05804765","-118.44507727304676"
"Home Business","1417 VETERAN AVENUE,LOS ANGELES,CA,90024","06/21/2019","","Veteran Apartments, 1417, Veteran Avenue, West Los Angeles, Los Angeles, Los Angeles County, California, 90024-3990, United States","34.053182050000004","-118.44425318617202"
"Home Business","1328 WESTWOOD BLVD,LOS ANGELES,CA,90024","01/01/2019","","1328, Westwood Boulevard, Westwood Village, Westwood, Los Angeles, Los Angeles County, California, 90024, United States","34.056581249999994","-118.44238833333333"
"Home Business","1575 WESTWOOD BLVD,LOS ANGELES,CA,90024","01/01/2019","","1575, Westwood Boulevard, Westwood, Los Angeles, Los Angeles County, California, 90024, United States","34.05270696875","-118.43960959375"
"Home Business","1408 WARNALL AVENUE,LOS ANGELES,CA,90024","07/01/2019","","1408, Warnall Avenue, Westwood, Los Angeles, Los Angeles County, California, 90024, United States","34.06349209937985","-118.42491526828648"
"Home Business","1441 S BEVERLY GLEN BLVD,LOS ANGELES,CA,90024","08/15/2019","","1441, South Beverly Glen Boulevard, Westwood, Los Angeles, Los Angeles County, California, 90024, United States","34.06171479591837","-118.42576828571428"
"Home Business","10572 ASHTON AVENUE,LOS ANGELES,CA,90024","11/01/2019","","10572, Ashton Avenue, Westwood Village, Westwood, Los Angeles, Los Angeles County, California, 90024, United States","34.061307923076924","-118.43181192307694"
"Home Business","10960 WILSHIRE BLVD,LOS ANGELES,CA,90024","08/07/2019","","Equinox Building, 10960, Wilshire Boulevard, Westwood Village, Westwood, Los Angeles, Los Angeles County, California, 90024, United States","34.05787365","-118.44592572625439"
"Home Business","10960 WILSHIRE BLVD,LOS ANGELES,CA,90024","01/01/2019","","Equinox Building, 10960, Wilshire Boulevard, Westwood Village, Westwood, Los Angeles, Los Angeles County, California, 90024, United States","34.05787365","-118.44592572625439"
"Home Business","10750 OHIO AVENUE,LOS ANGELES,CA,90024","11/06/2019","","10750, Ohio Avenue, Westwood, Los Angeles, Los Angeles County, California, 90024, United States","34.0561","-118.437255"
"Home Business","907 WESTWOOD BLVD,LOS ANGELES,CA,90024","01/01/2019","","907, Westwood Boulevard, Westwood Village, Westwood, Los Angeles, Los Angeles County, California, 90024, United States","34.06311049496845","-118.44518150248378"
"Home Business","10960 WILSHIRE BLVD,LOS ANGELES,CA,90024","01/01/2019","","Equinox Building, 10960, Wilshire Boulevard, Westwood Village, Westwood, Los Angeles, Los Angeles County, California, 90024, United States","34.05787365","-118.44592572625439"
"Home Business","1333 S BEVERLY GLEN BLVD,LOS ANGELES,CA,90024","09/17/2019","","1333, South Beverly Glen Boulevard, Westwood, Los Angeles, Los Angeles County, California, 90024, United States","34.063513748550186","-118.42680621900215"
"Home Business","10450 EASTBORNE AVENUE,LOS ANGELES,CA,90024","01/01/2019","","10450, Eastborne Avenue, Westwood, Los Angeles, Los Angeles County, California, 90024, United States","34.057263862068964","-118.42618079310346"
"Home Business","1395 KELTON AVENUE,LOS ANGELES,CA,90024","12/03/2019","","1395, Kelton Avenue, Westwood, Los Angeles, Los Angeles County, California, 90024, United States","34.054390553535306","-118.44367676623082"
"Home Business","875 COMSTOCK AVENUE,LOS ANGELES,CA,90024","11/25/2019","","875, Comstock Avenue, Westwood, Los Angeles, Los Angeles County, California, 90024, United States","34.068522360162824","-118.42599671164508"
"Home Business","10910 WELLWORTH AVENUE,LOS ANGELES,CA,90024","11/15/2019","","10910, Wellworth Avenue, Westwood Village, Westwood, Los Angeles, Los Angeles County, California, 90024, United States","34.05680175","-118.44316741666667"
"Home Business","10687 WILKINS AVENUE,LOS ANGELES,CA,90024","04/11/2019","07/31/2019","10687, Wilkins Avenue, Westwood, Los Angeles, Los Angeles County, California, 90024, United States","34.056470595981814","-118.43428339060324"
"Home Business","10474 1/2 EASTBORNE AVENUE,LOS ANGELES,CA,90024","08/01/2019","","","find","find"
"Home Business","10998 STRATHMORE DRIVE,LOS ANGELES,CA,90024","01/01/2019","","10998, Strathmore Drive, Westwood Village, Westwood, Los Angeles, Los Angeles County, California, 90024, United States","34.065711","-118.450333"
"Home Business","1569 ENSLEY AVENUE,LOS ANGELES,CA,90024","01/01/2019","12/31/2019","1569, Ensley Avenue, Westwood, Los Angeles, Los Angeles County, California, 90024, United States","34.062799852318214","-118.42249858991012"
"Home Business","10401 WILSHIRE BLVD,LOS ANGELES,CA,90024","09/01/2019","","Wilshire Boulevard, Westwood, Los Angeles, Los Angeles County, California, 90024, United States","34.0611221","-118.4346192"
"Home Business","1001 TIVERTON AVENUE,LOS ANGELES,CA,90024","04/25/2019","12/31/2019","Oakwood at Palazzo Westwood Village, 1001, Tiverton Avenue, Westwood Village, Westwood, Los Angeles, Los Angeles County, California, 90024, United States","34.0617425","-118.4441043"
"Home Business","1615 VETERAN AVENUE,LOS ANGELES,CA,90024","07/03/2019","","1615, Veteran Avenue, West Los Angeles, Los Angeles, Los Angeles County, California, 90024-3990, United States","34.050633","-118.44202206499818"
"Home Business","888 HILGARD AVENUE,LOS ANGELES,CA,90024","01/01/2019","","888, Hilgard Avenue, Westwood Village, Westwood, Los Angeles, Los Angeles County, California, 90024, United States","34.06439313052436","-118.44085866203896"
"Home Business","10657 HOLMAN AVENUE,LOS ANGELES,CA,90024","02/20/2019","","10657, Holman Avenue, Westwood, Los Angeles, Los Angeles County, California, 90024, United States","34.05489274372943","-118.43246284757312"
"Home Business","11070 STRATHMORE DRIVE,LOS ANGELES,CA,90024","04/01/2019","07/01/2019","Strathmore Terrace, 11070, Strathmore Drive, Westwood Village, Westwood, Los Angeles, Los Angeles County, California, 90024, United States","34.063915050000006","-118.45226684033057"
"Home Business","10430 WILSHIRE BLVD,LOS ANGELES,CA,90024","03/15/2019","","Wilshire Boulevard, Westwood, Los Angeles, Los Angeles County, California, 90024, United States","34.0611221","-118.4346192"
"Home Business","10833 WILSHIRE BLVD,LOS ANGELES,CA,90024","10/01/2019","","10833, Wilshire Boulevard, Westwood Village, Westwood, Los Angeles, Los Angeles County, California, 90024, United States","34.059647","-118.4409302"
"Home Business","901 LEVERING AVENUE,LOS ANGELES,CA,90024","12/06/2019","12/31/2019","901, Levering Avenue, Westwood Village, Westwood, Los Angeles, Los Angeles County, California, 90024, United States","34.063327","-118.44897"
"Home Business","10540 WILSHIRE BLVD,LOS ANGELES,CA,90024","07/05/2019","11/01/2019","10540, Wilshire Boulevard, Westwood, Los Angeles, Los Angeles County, California, 90024, United States","34.0630844137931","-118.43257293103449"
"Home Business","1511 SELBY AVENUE,LOS ANGELES,CA,90024","06/17/2019","06/22/2019","1511, Selby Avenue, Westwood, Los Angeles, Los Angeles County, California, 90024, United States","34.05539344897959","-118.43801448979592"
"Home Business","10880 WILSHIRE BLVD,LOS ANGELES,CA,90024","04/08/2019","","U.S. Coast Guard - Motion Picture and Television Office, 10880, Wilshire Boulevard, Westwood Village, Westwood, Los Angeles, Los Angeles County, California, 90024, United States","34.058617","-118.4432767"
"Home Business","1081 WESTWOOD BLVD,LOS ANGELES,CA,90024","01/01/2019","","1081, Westwood Boulevard, Westwood Village, Westwood, Los Angeles, Los Angeles County, California, 90024, United States","34.061176275510206","-118.44522148979593"
"Home Business","10682 KINNARD AVENUE,LOS ANGELES,CA,90024","01/01/2019","","10682, Kinnard Avenue, Westwood, Los Angeles, Los Angeles County, California, 90024, United States","34.05554723529412","-118.43355805882354"
"Home Business","1033 HILGARD AVENUE,LOS ANGELES,CA,90024","03/07/2019","","1033, Hilgard Avenue, Westwood Village, Westwood, Los Angeles, Los Angeles County, California, 90024, United States","34.06114376408066","-118.44179724013463"
"Home Business","1248 1/2 DEVON AVENUE,LOS ANGELES,CA,90024","02/01/2019","","","find","find"
"Home Business","10877 WILSHIRE BLVD,LOS ANGELES,CA,90024","03/04/2019","","10877, Wilshire Boulevard, Westwood Village, Westwood, Los Angeles, Los Angeles County, California, 90024, United States","34.05927025","-118.4423481"
"Home Business","10866 WILSHIRE BLVD,LOS ANGELES,CA,90024","01/16/2019","","10866, Wilshire Boulevard, Westwood Village, Westwood, Los Angeles, Los Angeles County, California, 90024, United States","34.059184384615385","-118.44201938461538"
"Home Business","10682 KINNARD AVENUE,LOS ANGELES,CA,90024","01/01/2019","","10682, Kinnard Avenue, Westwood, Los Angeles, Los Angeles County, California, 90024, United States","34.05554723529412","-118.43355805882354"
